VolcanoID,V_Name,Country,Region,Subregion,Latitude,Longitude,hazard
210010,West Eifel Volcanic Field,Germany,Mediterranean and W Asia,Western Europe,50.17,6.85,
210020,Cha?ne des Puys,France,Mediterranean and W Asia,Western Europe,45.77499999999989,2.97,
210030,Olot Volcanic Field,Spain,Mediterranean and W Asia,Western Europe,42.17,2.53,
210040,Calatrava Volcanic Field,Spain,Mediterranean and W Asia,Western Europe,38.869999999999905,-4.02,
211001,Larderello,Italy,Mediterranean and W Asia,Italy,43.25,10.8699999999999,
211003,Vulsini,Italy,Mediterranean and W Asia,Italy,42.6,11.93,
211004,Alban Hills,Italy,Mediterranean and W Asia,Italy,41.729999999999905,12.6999999999999,
211010,Campi Flegrei,Italy,Mediterranean and W Asia,Italy,40.826999999999906,14.1389999999999,3.0
211020,Vesuvius,Italy,Mediterranean and W Asia,Italy,40.820999999999906,14.426,3.0
211030,Ischia,Italy,Mediterranean and W Asia,Italy,40.729999999999905,13.897,
211031,Palinuro,Italy,Mediterranean and W Asia,Italy,39.479999999999905,14.83,
211040,Stromboli,Italy,Mediterranean and W Asia,Italy,38.789,15.2129999999999,1.0
211041,Panarea,Italy,Mediterranean and W Asia,Italy,38.63,15.07,
211042,Lipari,Italy,Mediterranean and W Asia,Italy,38.479999999999905,14.9499999999999,
211050,Vulcano,Italy,Mediterranean and W Asia,Italy,38.404,14.962,3.0
211060,Etna,Italy,Mediterranean and W Asia,Italy,37.734,15.004,2.0
211070,Campi Flegrei Mar Sicilia,Italy,Mediterranean and W Asia,Italy,37.1,12.6999999999999,1.0
211071,Pantelleria,Italy,Mediterranean and W Asia,Italy,36.77,12.02,
212020,Methana,Greece,Mediterranean and W Asia,Greece,37.615,23.3359999999999,
212030,M?los,Greece,Mediterranean and W Asia,Greece,36.698999999999906,24.439,
212040,Santorini,Greece,Mediterranean and W Asia,Greece,36.404,25.396,3.0
212050,Nisyros,Greece,Mediterranean and W Asia,Greece,36.585999999999906,27.16,2.0
212051,Yali,Greece,Mediterranean and W Asia,Greece,36.67099999999991,27.14,
213000,Kula,Turkey,Mediterranean and W Asia,Turkey,38.579999999999906,28.52,
213001,Karapinar Field,Turkey,Mediterranean and W Asia,Turkey,37.67,33.6499999999999,
213002,Hasan Dagi,Turkey,Mediterranean and W Asia,Turkey,38.13,34.17,
213003,G?ll? Dag,Turkey,Mediterranean and W Asia,Turkey,38.25,34.57,
213004,Acig?l-Nevsehir,Turkey,Mediterranean and W Asia,Turkey,38.57,34.52,
213010,Erciyes Dagi,Turkey,Mediterranean and W Asia,Turkey,38.52,35.4799999999999,
213011,Karaca Dag,Turkey,Mediterranean and W Asia,Turkey,37.67,39.829999999999906,
213020,Nemrut Dagi,Turkey,Mediterranean and W Asia,Turkey,38.649999999999906,42.229999999999905,
213021,S?phan Dagi,Turkey,Mediterranean and W Asia,Turkey,38.92,42.82,
213022,Girekol Tepe,Turkey,Mediterranean and W Asia,Turkey,39.192,43.216999999999906,
213030,Tend?rek Dagi,Turkey,Mediterranean and W Asia,Turkey,39.369999999999905,43.869999999999905,
213040,Ararat,Turkey,Mediterranean and W Asia,Turkey,39.7,44.299999999999905,
213050,Kars Plateau,Turkey,Mediterranean and W Asia,Turkey,40.75,43.25,
214010,Elbrus,Russia,Mediterranean and W Asia,Western Asia,43.329999999999906,42.45,
214020,Kasbek,Georgia,Mediterranean and W Asia,Western Asia,42.7,44.5,
214030,Kabargin Oth Group,Georgia,Mediterranean and W Asia,Western Asia,42.549999999999905,44.0,
214040,Unnamed,Georgia,Mediterranean and W Asia,Western Asia,42.45,44.25,
214050,Unnamed,Georgia,Mediterranean and W Asia,Western Asia,41.549999999999905,43.6,
214060,Aragats,Armenia,Mediterranean and W Asia,Western Asia,40.53,44.2,
214070,Ghegam Ridge,Armenia,Mediterranean and W Asia,Western Asia,40.274999999999906,44.75,
214080,Dar-Alages,Armenia,Mediterranean and W Asia,Western Asia,39.7,45.542,
214090,Porak,Armenia-Azerbaijan,Mediterranean and W Asia,Western Asia,40.02,45.78,
214100,Tskhouk-Karckar,Armenia-Azerbaijan,Mediterranean and W Asia,Western Asia,39.729999999999905,46.02,
221010,"Tair, Jebel at",Yemen,Africa and Red Sea,Africa (northeastern) and Red Sea,15.55,41.829999999999906,1.0
221020,Zubair Group,Yemen,Africa and Red Sea,Africa (northeastern) and Red Sea,15.05,42.18,
221021,Zukur,Yemen,Africa and Red Sea,Africa (northeastern) and Red Sea,14.02,42.75,
221022,Hanish,Yemen,Africa and Red Sea,Africa (northeastern) and Red Sea,13.72,42.729999999999905,
221030,Jalua,Eritrea,Africa and Red Sea,Africa (northeastern) and Red Sea,15.042,39.82,
221040,Alid,Eritrea,Africa and Red Sea,Africa (northeastern) and Red Sea,14.88,39.92,
221041,Dallol,Ethiopia,Africa and Red Sea,Africa (northeastern) and Red Sea,14.242,40.299999999999905,
221050,Gada Ale,Ethiopia,Africa and Red Sea,Africa (northeastern) and Red Sea,13.975,40.408,
221060,Alu,Ethiopia,Africa and Red Sea,Africa (northeastern) and Red Sea,13.8249999999999,40.508,
221070,Dalaffilla,Ethiopia,Africa and Red Sea,Africa (northeastern) and Red Sea,13.792,40.549999999999905,
221071,Borale Ale,Ethiopia,Africa and Red Sea,Africa (northeastern) and Red Sea,13.725,40.6,
221080,Erta Ale,Ethiopia,Africa and Red Sea,Africa (northeastern) and Red Sea,13.6,40.67,1.0
221090,Ale Bagu,Ethiopia,Africa and Red Sea,Africa (northeastern) and Red Sea,13.52,40.63,
221091,Hayli Gubbi,Ethiopia,Africa and Red Sea,Africa (northeastern) and Red Sea,13.5,40.71999999999991,
221100,Dubbi,Eritrea,Africa and Red Sea,Africa (northeastern) and Red Sea,13.58,41.808,
221101,Nabro,Eritrea,Africa and Red Sea,Africa (northeastern) and Red Sea,13.3699999999999,41.7,
221102,Mallahle,Ethiopia-Eritrea,Africa and Red Sea,Africa (northeastern) and Red Sea,13.27,41.649999999999906,
221103,Sork Ale,Ethiopia-Eritrea,Africa and Red Sea,Africa (northeastern) and Red Sea,13.18,41.725,
221104,Asavyo,Ethiopia,Africa and Red Sea,Africa (northeastern) and Red Sea,13.07,41.6,
221105,Mat Ala,Ethiopia,Africa and Red Sea,Africa (northeastern) and Red Sea,13.1,41.149999999999906,
221106,Tat Ali,Ethiopia,Africa and Red Sea,Africa (northeastern) and Red Sea,13.2799999999999,41.07,
221107,Borawli,Ethiopia,Africa and Red Sea,Africa (northeastern) and Red Sea,13.3,40.979999999999905,
221110,Afder?,Ethiopia,Africa and Red Sea,Africa (northeastern) and Red Sea,13.08,40.85,
221111,Ma Alalta,Ethiopia,Africa and Red Sea,Africa (northeastern) and Red Sea,13.02,40.2,
221112,Alayta,Ethiopia,Africa and Red Sea,Africa (northeastern) and Red Sea,12.88,40.57,
221113,Dabbahu,Ethiopia,Africa and Red Sea,Africa (northeastern) and Red Sea,12.6,40.479999999999905,
221114,Dabbayra,Ethiopia,Africa and Red Sea,Africa (northeastern) and Red Sea,12.38,40.07,
221115,Manda Hararo,Ethiopia,Africa and Red Sea,Africa (northeastern) and Red Sea,12.17,40.82,
221116,Groppo,Ethiopia,Africa and Red Sea,Africa (northeastern) and Red Sea,11.73,40.25,
221120,Kurub,Ethiopia,Africa and Red Sea,Africa (northeastern) and Red Sea,11.88,41.207999999999906,
221121,Borawli,Ethiopia,Africa and Red Sea,Africa (northeastern) and Red Sea,11.63,41.45,
221122,Manda-Inakir,Ethiopia-Djibouti,Africa and Red Sea,Africa (northeastern) and Red Sea,12.38,42.2,
221123,Mousa Alli,Ethiopia-Eritrea-Djibouti,Africa and Red Sea,Africa (northeastern) and Red Sea,12.47,42.399999999999906,
221124,Gufa,Eritrea-Djibouti,Africa and Red Sea,Africa (northeastern) and Red Sea,12.55,42.53,
221125,Assab Volcanic Field,Eritrea,Africa and Red Sea,Africa (northeastern) and Red Sea,12.9499999999999,42.43,
221126,Ardouk?ba,Djibouti,Africa and Red Sea,Africa (northeastern) and Red Sea,11.58,42.46999999999991,
221127,Manda Gargori,Ethiopia,Africa and Red Sea,Africa (northeastern) and Red Sea,11.75,41.479999999999905,
221141,Dama Ali,Ethiopia,Africa and Red Sea,Africa (northeastern) and Red Sea,11.2799999999999,41.63,
221150,Gabillema,Ethiopia,Africa and Red Sea,Africa (northeastern) and Red Sea,11.08,41.27,
221151,Yangudi,Ethiopia,Africa and Red Sea,Africa (northeastern) and Red Sea,10.58,41.042,
221160,Ayelu,Ethiopia,Africa and Red Sea,Africa (northeastern) and Red Sea,10.082,40.701999999999906,
221170,Adwa,Ethiopia,Africa and Red Sea,Africa (northeastern) and Red Sea,10.07,40.84,
221171,Hertali,Ethiopia,Africa and Red Sea,Africa (northeastern) and Red Sea,9.77999999999999,40.329999999999906,
221172,Liado Hayk,Ethiopia,Africa and Red Sea,Africa (northeastern) and Red Sea,9.57,40.28,
221180,Dofen,Ethiopia,Africa and Red Sea,Africa (northeastern) and Red Sea,9.35,40.13,
221190,Fentale,Ethiopia,Africa and Red Sea,Africa (northeastern) and Red Sea,8.975,39.93,
221191,Beru,Ethiopia,Africa and Red Sea,Africa (northeastern) and Red Sea,8.94999999999999,39.75,
221200,Kone,Ethiopia,Africa and Red Sea,Africa (northeastern) and Red Sea,8.8,39.692,
221201,Unnamed,Ethiopia,Africa and Red Sea,Africa (northeastern) and Red Sea,8.69999999999999,39.63,
221210,Boset-Bericha,Ethiopia,Africa and Red Sea,Africa (northeastern) and Red Sea,8.558,39.475,
221220,Bishoftu Volcanic Field,Ethiopia,Africa and Red Sea,Africa (northeastern) and Red Sea,8.77999999999999,38.979999999999905,
221221,Unnamed,Ethiopia,Africa and Red Sea,Africa (northeastern) and Red Sea,8.61999999999999,38.95,
221222,Sodore,Ethiopia,Africa and Red Sea,Africa (northeastern) and Red Sea,8.43,39.35,
221230,Gedamsa,Ethiopia,Africa and Red Sea,Africa (northeastern) and Red Sea,8.35,39.18,
221240,Bora-Bericcio,Ethiopia,Africa and Red Sea,Africa (northeastern) and Red Sea,8.27,39.03,
221250,Tullu Moje,Ethiopia,Africa and Red Sea,Africa (northeastern) and Red Sea,8.158,39.13,
221251,Unnamed,Ethiopia,Africa and Red Sea,Africa (northeastern) and Red Sea,8.07,39.07,
221252,East Zway,Ethiopia,Africa and Red Sea,Africa (northeastern) and Red Sea,7.95,38.93,
221260,Butajiri-Silti Field,Ethiopia,Africa and Red Sea,Africa (northeastern) and Red Sea,8.05,38.35,
221270,Alutu,Ethiopia,Africa and Red Sea,Africa (northeastern) and Red Sea,7.77,38.78,
221280,O'a Caldera(s),Ethiopia,Africa and Red Sea,Africa (northeastern) and Red Sea,7.47,38.579999999999906,
221290,Corbetti Caldera(s),Ethiopia,Africa and Red Sea,Africa (northeastern) and Red Sea,7.18,38.43,
221291,Bilate River Field,Ethiopia,Africa and Red Sea,Africa (northeastern) and Red Sea,7.07,38.1,
221292,Tepi,Ethiopia,Africa and Red Sea,Africa (northeastern) and Red Sea,7.42,35.43,
221293,Hobicha Caldera(s),Ethiopia,Africa and Red Sea,Africa (northeastern) and Red Sea,6.78,37.829999999999906,
221300,Chiracha,Ethiopia,Africa and Red Sea,Africa (northeastern) and Red Sea,6.65,38.119999999999905,
221310,Tosa Sucha,Ethiopia,Africa and Red Sea,Africa (northeastern) and Red Sea,5.93,37.57,
221311,Unnamed,Ethiopia,Africa and Red Sea,Africa (northeastern) and Red Sea,5.65,37.67,
221320,Korath Range,Ethiopia,Africa and Red Sea,Africa (northeastern) and Red Sea,5.1,35.88,
221330,Mega Basalt Field,Ethiopia-Kenya,Africa and Red Sea,Africa (northeastern) and Red Sea,4.08,37.42,
222001,North Island,Kenya,Africa and Red Sea,Africa (eastern),4.07,36.049999999999905,
222010,Central Island,Kenya,Africa and Red Sea,Africa (eastern),3.5,36.042,
222020,South Island,Kenya,Africa and Red Sea,Africa (eastern),2.63,36.6,
222021,Marsabit,Kenya,Africa and Red Sea,Africa (eastern),2.32,37.96999999999991,
222030,"Barrier, The",Kenya,Africa and Red Sea,Africa (eastern),2.32,36.57,1.0
222040,Namarunu,Kenya,Africa and Red Sea,Africa (eastern),1.98,36.43,
222050,Segererua Plateau,Kenya,Africa and Red Sea,Africa (eastern),1.57,37.899999999999906,
222051,Emuruangogolak,Kenya,Africa and Red Sea,Africa (eastern),1.5,36.329999999999906,
222052,Silali,Kenya,Africa and Red Sea,Africa (eastern),1.15,36.229999999999905,
222053,Paka,Kenya,Africa and Red Sea,Africa (eastern),0.92,36.18,
222054,Korosi,Kenya,Africa and Red Sea,Africa (eastern),0.77,36.119999999999905,
222055,Ol Kokwe,Kenya,Africa and Red Sea,Africa (eastern),0.62,36.075,
222056,Nyambeni Hills,Kenya,Africa and Red Sea,Africa (eastern),0.23,37.869999999999905,
222060,Menengai,Kenya,Africa and Red Sea,Africa (eastern),-0.2,36.07,
222070,Homa Mountain,Kenya,Africa and Red Sea,Africa (eastern),-0.38,34.5,
222071,Elmenteita Badlands,Kenya,Africa and Red Sea,Africa (eastern),-0.52,36.27,
222080,"Eburru, Ol Doinyo",Kenya,Africa and Red Sea,Africa (eastern),-0.65,36.21999999999991,
222090,Olkaria,Kenya,Africa and Red Sea,Africa (eastern),-0.904,36.292,
222100,Longonot,Kenya,Africa and Red Sea,Africa (eastern),-0.914,36.445999999999906,
222110,Suswa,Kenya,Africa and Red Sea,Africa (eastern),-1.175,36.35,
222120,"Lengai, Ol Doinyo",Tanzania,Africa and Red Sea,Africa (eastern),-2.764,35.914,2.0
222130,Chyulu Hills,Kenya,Africa and Red Sea,Africa (eastern),-2.68,37.88,
222150,Kilimanjaro,Tanzania,Africa and Red Sea,Africa (eastern),-3.07,37.35,
222160,Meru,Tanzania,Africa and Red Sea,Africa (eastern),-3.25,36.75,
222161,Igwisi Hills,Tanzania,Africa and Red Sea,Africa (eastern),-4.891,31.93,
222162,Unnamed,Tanzania,Africa and Red Sea,Africa (eastern),-8.624,33.5829999999999,
222163,SW Usangu Basin,Tanzania,Africa and Red Sea,Africa (eastern),-8.75,33.7999999999999,
222164,Ngozi,Tanzania,Africa and Red Sea,Africa (eastern),-8.97,33.57,
222165,Izumbwe-Mpoli,Tanzania,Africa and Red Sea,Africa (eastern),-8.93,33.3999999999999,
222166,Rungwe,Tanzania,Africa and Red Sea,Africa (eastern),-9.13,33.67,
222170,Kyejo,Tanzania,Africa and Red Sea,Africa (eastern),-9.23,33.78,
223001,Fort Portal,Uganda,Africa and Red Sea,Africa (central),0.7,30.25,
223002,Kyatwa,Uganda,Africa and Red Sea,Africa (central),0.45,30.25,
223003,Katwe-Kikorongo,Uganda,Africa and Red Sea,Africa (central),-0.08,29.92,
223004,Bunyaruguru,Uganda,Africa and Red Sea,Africa (central),-0.2,30.0799999999999,
223005,Katunga,Uganda,Africa and Red Sea,Africa (central),-0.471,30.1909999999999,
223010,May-ya-moto,DR Congo,Africa and Red Sea,Africa (central),-0.93,29.3299999999999,
223020,Nyamuragira,DR Congo,Africa and Red Sea,Africa (central),-1.408,29.1999999999999,1.0
223030,Nyiragongo,DR Congo,Africa and Red Sea,Africa (central),-1.52,29.25,1.0
223040,Karisimbi,DR Congo-Rwanda,Africa and Red Sea,Africa (central),-1.5,29.4499999999999,
223050,Visoke,DR Congo-Rwanda,Africa and Red Sea,Africa (central),-1.47,29.492,
223060,Muhavura,Uganda-Rwanda,Africa and Red Sea,Africa (central),-1.38,29.67,
223070,Bufumbira,Uganda,Africa and Red Sea,Africa (central),-1.23,29.7199999999999,
223080,Tshibinda,DR Congo,Africa and Red Sea,Africa (central),-2.32,28.75,
224001,Sao Tome,Sao Tome and Principe,Africa and Red Sea,Africa (western),0.2,6.58,
224002,San Carlos,Equatorial Guinea,Africa and Red Sea,Africa (western),3.35,8.52,
224003,San Joaquin,Equatorial Guinea,Africa and Red Sea,Africa (western),3.35,8.63,
224004,Santa Isabel,Equatorial Guinea,Africa and Red Sea,Africa (western),3.58,8.75,
224010,Cameroon,Cameroon,Africa and Red Sea,Africa (western),4.203,9.17,1.0
224011,Tombel Graben,Cameroon,Africa and Red Sea,Africa (western),4.75,9.67,
224020,Manengouba,Cameroon,Africa and Red Sea,Africa (western),5.03,9.83,
224030,Oku Volcanic Field,Cameroon,Africa and Red Sea,Africa (western),6.25,10.5,
224040,Ngaoundere Plateau,Cameroon,Africa and Red Sea,Africa (western),7.25,13.67,
224050,Biu Plateau,Nigeria,Africa and Red Sea,Africa (western),10.75,12.0,
225001,Todra Volcanic Field,Niger,Africa and Red Sea,Africa (northern),17.68,8.5,
225002,Tin Zaouatene Volcanic Field,Mali,Africa and Red Sea,Africa (northern),19.8299999999999,2.83,
225003,In Ezzane Volcanic Field,Algeria-Niger,Africa and Red Sea,Africa (northern),23.0,10.83,
225004,Tahalra Volcanic Field,Algeria,Africa and Red Sea,Africa (northern),22.67,5.0,
225005,Atakor Volcanic Field,Algeria,Africa and Red Sea,Africa (northern),23.3299999999999,5.83,
225006,Manzaz Volcanic Field,Algeria,Africa and Red Sea,Africa (northern),23.92,5.83,
225007,Haruj,Libya,Africa and Red Sea,Africa (northern),27.25,17.5,
225008,Wau-en-Namus,Libya,Africa and Red Sea,Africa (northern),25.05,17.55,
225009,"T?h, Tarso",Chad,Africa and Red Sea,Africa (northern),21.3299999999999,16.3299999999999,
225010,"Toussid?, Tarso",Chad,Africa and Red Sea,Africa (northern),21.03,16.4499999999999,
225020,"Voon, Tarso",Chad,Africa and Red Sea,Africa (northern),20.92,17.28,
225021,"Koussi, Emi",Chad,Africa and Red Sea,Africa (northern),19.8,18.53,
225030,"Marra, Jebel",Sudan,Africa and Red Sea,Africa (northern),12.9499999999999,24.27,
225040,Kutum Volcanic Field,Sudan,Africa and Red Sea,Africa (northern),14.57,25.85,
225050,Meidob Volcanic Field,Sudan,Africa and Red Sea,Africa (northern),15.32,26.4699999999999,3.0
225060,Bayuda Volcanic Field,Sudan,Africa and Red Sea,Africa (northern),18.3299999999999,32.75,
225070,"Umm Arafieb, Jebel",Sudan,Africa and Red Sea,Africa (northern),18.17,33.8299999999999,
230010,Sharat Kovakab,Syria,Middle East and Indian Ocean,Middle East (eastern),36.53,40.85,
230020,Unnamed,Syria,Middle East and Indian Ocean,Middle East (eastern),36.67,37.0,
230030,Golan Heights,Syria,Middle East and Indian Ocean,Middle East (eastern),33.1,35.9699999999999,
230040,Unnamed,Syria,Middle East and Indian Ocean,Middle East (eastern),33.0,36.63,
230050,Es Safa,Syria,Middle East and Indian Ocean,Middle East (eastern),33.25,37.07,
230060,"Druze, Jabal ad",Syria,Middle East and Indian Ocean,Middle East (eastern),32.658,36.424999999999905,
231001,"Harrah, Al",Saudi Arabia,Middle East and Indian Ocean,Middle East (eastern),31.0799999999999,38.42,
231010,"Rahah, Harrat ar",Saudi Arabia,Middle East and Indian Ocean,Middle East (southern),27.8,36.17,
231020,"'Uwayrid, Harrat",Saudi Arabia,Middle East and Indian Ocean,Middle East (southern),27.0799999999999,37.25,
231040,"Lunayyir, Harrat",Saudi Arabia,Middle East and Indian Ocean,Middle East (southern),25.17,37.75,
231050,"Ithnayn, Harrat",Saudi Arabia,Middle East and Indian Ocean,Middle East (southern),26.5799999999999,40.2,
231060,"Khaybar, Harrat",Saudi Arabia,Middle East and Indian Ocean,Middle East (southern),25.0,39.92,
231070,"Rahat, Harrat",Saudi Arabia,Middle East and Indian Ocean,Middle East (southern),23.0799999999999,39.78,
231071,"Kishb, Harrat",Saudi Arabia,Middle East and Indian Ocean,Middle East (southern),22.8,41.38,
231072,"Birk, Harrat al",Saudi Arabia,Middle East and Indian Ocean,Middle East (southern),18.37,41.63,
231080,"Yar, Jabal",Saudi Arabia,Middle East and Indian Ocean,Middle East (southern),17.05,42.829999999999906,
231090,"Arhab, Harra of",Yemen,Middle East and Indian Ocean,Middle East (southern),15.63,44.079999999999906,
231100,"Marha, Jabal el-",Yemen,Middle East and Indian Ocean,Middle East (southern),15.2449999999999,44.235999999999905,
231110,"Haylan, Jabal",Yemen,Middle East and Indian Ocean,Middle East (southern),15.43,44.78,
231120,"Dhamar, Harras of",Yemen,Middle East and Indian Ocean,Middle East (southern),14.57,44.67,
231150,Unnamed,Yemen,Middle East and Indian Ocean,Middle East (southern),12.25,45.0,
231160,"Saw?d, Harra es-",Yemen,Middle East and Indian Ocean,Middle East (southern),13.58,46.1199999999999,
231170,"Bal Haf, Harra of",Yemen,Middle East and Indian Ocean,Middle East (southern),14.05,48.32999999999989,
231180,Bir Borhut,Yemen,Middle East and Indian Ocean,Middle East (southern),15.55,50.63,
232000,Unnamed,Iran-Azerbaijan,Middle East and Indian Ocean,Middle East (eastern),39.25,45.17,
232001,Sahand,Iran,Middle East and Indian Ocean,Middle East (eastern),37.75,46.43,
232002,Sabalan,Iran,Middle East and Indian Ocean,Middle East (eastern),38.25,47.92,
232010,Damavand,Iran,Middle East and Indian Ocean,Middle East (eastern),35.951,52.109,
232020,Qal'eh Hasan Ali,Iran,Middle East and Indian Ocean,Middle East (western),29.3999999999999,57.57,
232030,Bazman,Iran,Middle East and Indian Ocean,Middle East (western),28.07,60.0,
232040,Unnamed,Iran,Middle East and Indian Ocean,Middle East (western),28.17,60.67,
232050,Taftan,Iran,Middle East and Indian Ocean,Middle East (western),28.6,61.13,
232060,Dacht-i-Navar Group,Afghanistan,Middle East and Indian Ocean,Middle East (western),33.95,67.92,
232070,Vakak Group,Afghanistan,Middle East and Indian Ocean,Middle East (western),34.25,67.9699999999999,
232080,Tor Zawar,Pakistan,Middle East and Indian Ocean,Middle East (western),30.4789999999999,67.492,
233001,"Grille, La",Comoros,Middle East and Indian Ocean,Indian Ocean (western),-11.47,43.329999999999906,
233005,Mayotte Island,France,Middle East and Indian Ocean,Indian Ocean (western),-12.83,45.17,
233010,Karthala,Comoros,Middle East and Indian Ocean,Indian Ocean (western),-11.75,43.38,1.0
233011,Ambre-Bobaomby,Madagascar,Middle East and Indian Ocean,Indian Ocean (western),-12.6,49.14999999999989,
233012,Nosy-Be,Madagascar,Middle East and Indian Ocean,Indian Ocean (western),-13.32,48.4799999999999,
233013,Ankaizina Field,Madagascar,Middle East and Indian Ocean,Indian Ocean (western),-14.3,48.67,
233014,Itasy Volcanic Field,Madagascar,Middle East and Indian Ocean,Indian Ocean (western),-19.0,46.77,
233015,Ankaratra Field,Madagascar,Middle East and Indian Ocean,Indian Ocean (western),-19.3999999999999,47.2,
233020,"Fournaise, Piton de la",France,Middle East and Indian Ocean,Indian Ocean (western),-21.231,55.713,2.0
234000,Boomerang Seamount,France,Middle East and Indian Ocean,Indian Ocean (southern),-37.720999999999904,77.825,
234001,Amsterdam Island,France,Middle East and Indian Ocean,Indian Ocean (southern),-37.829999999999906,77.51999999999991,
234002,St. Paul,France,Middle East and Indian Ocean,Indian Ocean (southern),-38.71999999999991,77.53,
234010,Heard,Australia,Middle East and Indian Ocean,Indian Ocean (southern),-53.106,73.513,1.0
234011,McDonald Islands,Australia,Middle East and Indian Ocean,Indian Ocean (southern),-53.03,72.59999999999991,1.0
234020,Kerguelen Islands,France,Middle East and Indian Ocean,Indian Ocean (southern),-49.57999999999989,69.5,
234030,"Est, Ile de l'",France,Middle East and Indian Ocean,Indian Ocean (southern),-46.43,52.2,
234040,"Possession, Ile de la",France,Middle East and Indian Ocean,Indian Ocean (southern),-46.42,51.75,
234050,"Cochons, Ile aux",France,Middle East and Indian Ocean,Indian Ocean (southern),-46.1,50.2299999999999,
234060,Prince Edward Island,South Africa,Middle East and Indian Ocean,Indian Ocean (southern),-46.63,37.95,
234070,Marion Island,South Africa,Middle East and Indian Ocean,Indian Ocean (southern),-46.89999999999989,37.75,
235010,Unnamed,India,Middle East and Indian Ocean,Indian Ocean (eastern),11.75,80.75,
241010,Kaikohe-Bay of Islands,New Zealand,New Zealand to Fiji,New Zealand,-35.2999999999999,173.9,
241011,Whangarei,New Zealand,New Zealand to Fiji,New Zealand,-35.75,174.27,
241020,Auckland Field,New Zealand,New Zealand to Fiji,New Zealand,-36.899999999999906,174.87,
241021,Mayor Island,New Zealand,New Zealand to Fiji,New Zealand,-37.28,176.25,
241030,Taranaki [Egmont],New Zealand,New Zealand to Fiji,New Zealand,-39.299999999999905,174.069999999999,
241040,White Island,New Zealand,New Zealand to Fiji,New Zealand,-37.52,177.18,1.0
241050,Okataina,New Zealand,New Zealand to Fiji,New Zealand,-38.119999999999905,176.5,1.0
241060,Reporoa,New Zealand,New Zealand to Fiji,New Zealand,-38.42,176.33,
241061,Maroa,New Zealand,New Zealand to Fiji,New Zealand,-38.42,176.08,
241070,Taupo,New Zealand,New Zealand to Fiji,New Zealand,-38.82,176.0,3.0
241080,Tongariro,New Zealand,New Zealand to Fiji,New Zealand,-39.13,175.642,2.0
241100,Ruapehu,New Zealand,New Zealand to Fiji,New Zealand,-39.28,175.569999999999,2.0
241101,Clark,New Zealand,New Zealand to Fiji,New Zealand,-36.445999999999906,177.839,
241102,Tangaroa,New Zealand,New Zealand to Fiji,New Zealand,-36.320999999999906,178.027999999999,
241110,Rumble V,New Zealand,New Zealand to Fiji,New Zealand,-36.142,178.196,
241120,Rumble IV,New Zealand,New Zealand to Fiji,New Zealand,-36.13,178.05,
241130,Rumble III,New Zealand,New Zealand to Fiji,New Zealand,-35.7449999999999,178.478,1.0
241131,Rumble II West,New Zealand,New Zealand to Fiji,New Zealand,-35.353,178.52699999999902,
241140,Healy,New Zealand,New Zealand to Fiji,New Zealand,-35.0039999999999,178.973,
241150,Brothers,New Zealand,New Zealand to Fiji,New Zealand,-34.875,179.07499999999902,
242001,Volcano W,New Zealand,New Zealand to Fiji,Kermadec Islands,-31.85,-179.18,
242005,Havre Seamount,New Zealand,New Zealand to Fiji,Kermadec Islands,-31.1099999999999,179.039999999999,
242010,Curtis Island,New Zealand,New Zealand to Fiji,Kermadec Islands,-30.542,-178.561,
242021,Macauley Island,New Zealand,New Zealand to Fiji,Kermadec Islands,-30.1999999999999,-178.47,
242022,Giggenbach,New Zealand,New Zealand to Fiji,Kermadec Islands,-30.036,-178.711999999999,
242030,Raoul Island,New Zealand,New Zealand to Fiji,Kermadec Islands,-29.27,-177.91999999999902,3.0
242050,Monowai Seamount,New Zealand,New Zealand to Fiji,Tonga Islands,-25.887,-177.18799999999902,1.0
243001,Unnamed,Undersea Features,New Zealand to Fiji,Tonga Islands,-24.8,-177.02,
243010,Unnamed,Tonga,New Zealand to Fiji,Tonga Islands,-21.379999999999896,-175.65,
243011,Unnamed,Tonga,New Zealand to Fiji,Tonga Islands,-21.1499999999999,-175.75,
243030,Unnamed,Tonga,New Zealand to Fiji,Tonga Islands,-20.85,-175.53,
243040,Hunga Tonga-Hunga Ha'apai,Tonga,New Zealand to Fiji,Tonga Islands,-20.57,-175.38,2.0
243050,Falcon Island,Tonga,New Zealand to Fiji,Tonga Islands,-20.32,-175.41999999999902,1.0
243060,Tofua,Tonga,New Zealand to Fiji,Tonga Islands,-19.75,-175.069999999999,1.0
243061,Kao,Tonga,New Zealand to Fiji,Tonga Islands,-19.67,-175.03,
243070,Metis Shoal,Tonga,New Zealand to Fiji,Tonga Islands,-19.18,-174.87,1.0
243080,Home Reef,Tonga,New Zealand to Fiji,Tonga Islands,-18.992,-174.775,
243090,Late,Tonga,New Zealand to Fiji,Tonga Islands,-18.806,-174.65,
243091,Unnamed,Tonga,New Zealand to Fiji,Tonga Islands,-18.324999999999896,-174.365,
243100,Fonualei,Tonga,New Zealand to Fiji,Tonga Islands,-18.02,-174.32499999999902,2.0
243101,Tafahi,Tonga,New Zealand to Fiji,Tonga Islands,-15.85,-173.72,
243102,Curacoa,Tonga,New Zealand to Fiji,Tonga Islands,-15.6199999999999,-173.66999999999902,
243110,Niuafo'ou,Tonga,New Zealand to Fiji,Tonga Islands,-15.6,-175.63,2.0
243120,Tafu-Maka,Tonga,New Zealand to Fiji,Tonga Islands,-15.3699999999999,-174.229999999999,
243130,West Mata,Tonga,New Zealand to Fiji,Tonga Islands,-15.1,-173.75,
243140,Niua Tahi,Tonga,New Zealand to Fiji,Tonga Islands,-15.42,-174.02,
244000,Vailulu'u,United States,New Zealand to Fiji,Samoan and Wallis Islands,-14.215,-169.057999999999,
244001,Ta'u,United States,New Zealand to Fiji,Samoan and Wallis Islands,-14.23,-169.454,
244010,Ofu-Olosega,United States,New Zealand to Fiji,Samoan and Wallis Islands,-14.175,-169.617999999999,
244020,Tutuila,United States,New Zealand to Fiji,Samoan and Wallis Islands,-14.295,-170.69999999999902,
244030,Upolu,Samoa,New Zealand to Fiji,Samoan and Wallis Islands,-13.935,-171.72,
244040,Savai'i,Samoa,New Zealand to Fiji,Samoan and Wallis Islands,-13.612,-172.525,
244050,Wallis Islands,France,New Zealand to Fiji,Samoan and Wallis Islands,-13.3,-176.16999999999902,
245010,Taveuni,Fiji,New Zealand to Fiji,Fiji Islands,-16.82,-179.97,1.0
245020,Koro,Fiji,New Zealand to Fiji,Fiji Islands,-17.32,179.4,
245030,Nabukelevu,Fiji,New Zealand to Fiji,Fiji Islands,-19.12,177.979999999999,
250010,St. Andrew Strait,Papua New Guinea,Melanesia and Australia,Admiralty Islands,-2.38,147.349999999999,
250020,Baluan,Papua New Guinea,Melanesia and Australia,Admiralty Islands,-2.57,147.28,
250030,Unnamed,Papua New Guinea,Melanesia and Australia,Admiralty Islands,-3.03,147.78,
251001,Blup Blup,Papua New Guinea,Melanesia and Australia,Northeast of New Guinea,-3.507,144.604999999999,
251002,Kadovar,Papua New Guinea,Melanesia and Australia,Northeast of New Guinea,-3.63,144.631,
251010,Bam,Papua New Guinea,Melanesia and Australia,Northeast of New Guinea,-3.613,144.818,1.0
251011,Boisa,Papua New Guinea,Melanesia and Australia,Northeast of New Guinea,-3.994,144.962999999999,
251020,Manam,Papua New Guinea,Melanesia and Australia,Northeast of New Guinea,-4.08,145.037,3.0
251030,Karkar,Papua New Guinea,Melanesia and Australia,Northeast of New Guinea,-4.649,145.964,3.0
251040,Unnamed,Papua New Guinea,Melanesia and Australia,Northeast of New Guinea,-4.311,146.256,
251041,Yomba,Papua New Guinea,Melanesia and Australia,Northeast of New Guinea,-4.9,146.75,
251050,Long Island,Papua New Guinea,Melanesia and Australia,Northeast of New Guinea,-5.358,147.12,3.0
251060,Umboi,Papua New Guinea,Melanesia and Australia,Northeast of New Guinea,-5.589,147.875,
251070,Ritter Island,Papua New Guinea,Melanesia and Australia,Northeast of New Guinea,-5.52,148.121,1.0
251080,Sakar,Papua New Guinea,Melanesia and Australia,Northeast of New Guinea,-5.414,148.093999999999,
252001,Unnamed,Papua New Guinea,Melanesia and Australia,New Britain,-5.2,148.569999999999,
252010,Langila,Papua New Guinea,Melanesia and Australia,New Britain,-5.525,148.41999999999902,1.0
252021,Mundua,Papua New Guinea,Melanesia and Australia,New Britain,-4.63,149.349999999999,
252030,Garove,Papua New Guinea,Melanesia and Australia,New Britain,-4.692,149.5,
252040,Dakataua,Papua New Guinea,Melanesia and Australia,New Britain,-5.056,150.108,
252050,Bola,Papua New Guinea,Melanesia and Australia,New Britain,-5.15,150.03,
252060,Garua Harbour,Papua New Guinea,Melanesia and Australia,New Britain,-5.3,150.069999999999,
252070,Garbuna Group,Papua New Guinea,Melanesia and Australia,New Britain,-5.45,150.03,
252071,Lolo,Papua New Guinea,Melanesia and Australia,New Britain,-5.468,150.507,
252080,Pago,Papua New Guinea,Melanesia and Australia,New Britain,-5.58,150.52,2.0
252090,Sulu Range,Papua New Guinea,Melanesia and Australia,New Britain,-5.5,150.942,
252100,Hargy,Papua New Guinea,Melanesia and Australia,New Britain,-5.33,151.099999999999,
252110,Bamus,Papua New Guinea,Melanesia and Australia,New Britain,-5.2,151.229999999999,
252120,Ulawun,Papua New Guinea,Melanesia and Australia,New Britain,-5.05,151.33,3.0
252130,Lolobau,Papua New Guinea,Melanesia and Australia,New Britain,-4.92,151.15799999999902,
252131,Unnamed,Papua New Guinea,Melanesia and Australia,New Britain,-4.75,150.849999999999,
252140,Rabaul,Papua New Guinea,Melanesia and Australia,New Britain,-4.271,152.203,3.0
252150,Tavui,Papua New Guinea,Melanesia and Australia,New Britain,-4.12,152.19999999999902,
253000,Doma Peaks,Papua New Guinea,Melanesia and Australia,New Guinea and D'Entrecasteaux Islands,-5.9,143.15,
253001,Crater Mountain,Papua New Guinea,Melanesia and Australia,New Guinea and D'Entrecasteaux Islands,-6.58,145.08,
253002,Yelia,Papua New Guinea,Melanesia and Australia,New Guinea and D'Entrecasteaux Islands,-7.05,145.858,
253003,Koranga,Papua New Guinea,Melanesia and Australia,New Guinea and D'Entrecasteaux Islands,-7.33,146.708,
253004,Madilogo,Papua New Guinea,Melanesia and Australia,New Guinea and D'Entrecasteaux Islands,-9.19999999999999,147.569999999999,
253010,Lamington,Papua New Guinea,Melanesia and Australia,New Guinea and D'Entrecasteaux Islands,-8.94999999999999,148.15,
253011,Hydrographers Range,Papua New Guinea,Melanesia and Australia,New Guinea and D'Entrecasteaux Islands,-9.0,148.37,
253020,Musa River,Papua New Guinea,Melanesia and Australia,New Guinea and D'Entrecasteaux Islands,-9.308,148.13,
253021,Managlase Plateau,Papua New Guinea,Melanesia and Australia,New Guinea and D'Entrecasteaux Islands,-9.08,148.33,
253030,Victory,Papua New Guinea,Melanesia and Australia,New Guinea and D'Entrecasteaux Islands,-9.19999999999999,149.069999999999,
253031,Sessagara,Papua New Guinea,Melanesia and Australia,New Guinea and D'Entrecasteaux Islands,-9.48,149.13,
253040,Waiowa,Papua New Guinea,Melanesia and Australia,New Guinea and D'Entrecasteaux Islands,-9.57,149.07499999999902,
253041,Goodenough,Papua New Guinea,Melanesia and Australia,New Guinea and D'Entrecasteaux Islands,-9.48,150.349999999999,
253050,Iamalele,Papua New Guinea,Melanesia and Australia,New Guinea and D'Entrecasteaux Islands,-9.52,150.53,
253060,Dawson Strait Group,Papua New Guinea,Melanesia and Australia,New Guinea and D'Entrecasteaux Islands,-9.61999999999999,150.88,
254010,Lihir,Papua New Guinea,Melanesia and Australia,New Ireland,-3.125,152.642,
254020,Ambitle,Papua New Guinea,Melanesia and Australia,New Ireland,-4.08,153.65,
255000,Tore,Papua New Guinea,Melanesia and Australia,Bougainville and Solomon Islands,-5.83,154.93,
255010,Balbi,Papua New Guinea,Melanesia and Australia,Bougainville and Solomon Islands,-5.92,154.979999999999,
255011,Billy Mitchell,Papua New Guinea,Melanesia and Australia,Bougainville and Solomon Islands,-6.092,155.224999999999,
255020,Bagana,Papua New Guinea,Melanesia and Australia,Bougainville and Solomon Islands,-6.14,155.194999999999,3.0
255021,Takuan Group,Papua New Guinea,Melanesia and Australia,Bougainville and Solomon Islands,-6.442,155.608,
255030,Loloru,Papua New Guinea,Melanesia and Australia,Bougainville and Solomon Islands,-6.52,155.62,
255050,Simbo,Solomon Islands,Melanesia and Australia,Bougainville and Solomon Islands,-8.292,156.52,
255052,Kana Keoki,Solomon Islands,Melanesia and Australia,Bougainville and Solomon Islands,-8.75,157.03,
255053,Coleman Seamount,Solomon Islands,Melanesia and Australia,Bougainville and Solomon Islands,-8.83,157.16999999999902,
255060,Kavachi,Solomon Islands,Melanesia and Australia,Bougainville and Solomon Islands,-9.02,157.94999999999902,1.0
255061,Unnamed,Solomon Islands,Melanesia and Australia,Bougainville and Solomon Islands,-8.92,158.03,
255062,Gallego,Solomon Islands,Melanesia and Australia,Bougainville and Solomon Islands,-9.35,159.729999999999,
255070,Savo,Solomon Islands,Melanesia and Australia,Bougainville and Solomon Islands,-9.13,159.819999999999,
256010,Tinakula,Solomon Islands,Melanesia and Australia,Santa Cruz Islands,-10.38,165.8,1.0
257001,Motlav,Vanuatu,Melanesia and Australia,Vanuatu,-13.67,167.66999999999902,
257010,Suretamatai,Vanuatu,Melanesia and Australia,Vanuatu,-13.8,167.47,
257020,Gaua,Vanuatu,Melanesia and Australia,Vanuatu,-14.27,167.5,1.0
257021,Mere Lava,Vanuatu,Melanesia and Australia,Vanuatu,-14.4499999999999,168.05,
257030,Aoba,Vanuatu,Melanesia and Australia,Vanuatu,-15.4,167.83,3.0
257040,Ambrym,Vanuatu,Melanesia and Australia,Vanuatu,-16.25,168.12,2.0
257050,Lopevi,Vanuatu,Melanesia and Australia,Vanuatu,-16.507,168.346,2.0
257060,Epi,Vanuatu,Melanesia and Australia,Vanuatu,-16.68,168.37,1.0
257070,Kuwae,Vanuatu,Melanesia and Australia,Vanuatu,-16.829,168.536,1.0
257080,Unnamed,Vanuatu,Melanesia and Australia,Vanuatu,-16.992,168.592,
257081,North Vate,Vanuatu,Melanesia and Australia,Vanuatu,-17.4699999999999,168.353,
257090,Traitor's Head,Vanuatu,Melanesia and Australia,Vanuatu,-18.75,169.229999999999,
257100,Yasur,Vanuatu,Melanesia and Australia,Vanuatu,-19.53,169.442,2.0
257110,Aneityum,Vanuatu,Melanesia and Australia,Vanuatu,-20.199999999999896,169.78,
258001,Eastern Gemini Seamount,France,Melanesia and Australia,Pacific Ocean (southwestern),-20.98,170.28,
258010,Matthew Island,France,Melanesia and Australia,Pacific Ocean (southwestern),-22.3299999999999,171.319999999999,
258020,Hunter Island,France,Melanesia and Australia,Pacific Ocean (southwestern),-22.3999999999999,172.05,
258030,Unnamed,Undersea Features,Melanesia and Australia,Pacific Ocean (southwestern),-25.78,168.63,
259010,Newer Volcanics Province,Australia,Melanesia and Australia,Australia,-37.77,142.5,
260001,Narcondum,India,Indonesia,Andaman Islands,13.43,94.28,
260010,Barren Island,India,Indonesia,Andaman Islands,12.278,93.858,1.0
261020,Seulawah Agam,Indonesia,Indonesia,Sumatra,5.448,95.658,
261030,Peuet Sague,Indonesia,Indonesia,Sumatra,4.914,96.32899999999991,2.0
261050,"Telong, Bur ni",Indonesia,Indonesia,Sumatra,4.769,96.8209999999999,1.0
261070,Sibayak,Indonesia,Indonesia,Sumatra,3.23,98.51999999999991,
261080,Sinabung,Indonesia,Indonesia,Sumatra,3.17,98.39199999999991,
261090,Toba,Indonesia,Indonesia,Sumatra,2.58,98.8299999999999,
261101,Imun,Indonesia,Indonesia,Sumatra,2.158,98.93,
261110,Sibualbuali,Indonesia,Indonesia,Sumatra,1.556,99.25499999999991,
261111,Lubukraya,Indonesia,Indonesia,Sumatra,1.478,99.209,
261120,Sorikmarapi,Indonesia,Indonesia,Sumatra,0.686,99.539,2.0
261121,Malintang,Indonesia,Indonesia,Sumatra,0.47,99.67,
261130,Talakmau,Indonesia,Indonesia,Sumatra,0.079,99.98,
261131,Sarik-Gajah,Indonesia,Indonesia,Sumatra,0.08,100.2,
261140,Marapi,Indonesia,Indonesia,Sumatra,-0.381,100.473,1.0
261150,Tandikat,Indonesia,Indonesia,Sumatra,-0.433,100.31699999999901,
261160,Talang,Indonesia,Indonesia,Sumatra,-0.978,100.679,1.0
261170,Kerinci,Indonesia,Indonesia,Sumatra,-1.697,101.264,1.0
261171,Kunyit,Indonesia,Indonesia,Sumatra,-2.274,101.483,
261172,Hutapanjang,Indonesia,Indonesia,Sumatra,-2.33,101.59999999999901,
261180,Sumbing,Indonesia,Indonesia,Sumatra,-2.414,101.72799999999901,
261191,Pendan,Indonesia,Indonesia,Sumatra,-2.82,102.02,
261200,Belirang-Beriti,Indonesia,Indonesia,Sumatra,-2.82,102.18,
261210,"Daun, Bukit",Indonesia,Indonesia,Sumatra,-3.38,102.37,
261220,Kaba,Indonesia,Indonesia,Sumatra,-3.52,102.62,2.0
261230,Dempo,Indonesia,Indonesia,Sumatra,-4.03,103.13,1.0
261231,Patah,Indonesia,Indonesia,Sumatra,-4.27,103.3,
261240,"Lumut Balai, Bukit",Indonesia,Indonesia,Sumatra,-4.22,103.62,
261250,Besar,Indonesia,Indonesia,Sumatra,-4.43,103.67,
261251,Ranau,Indonesia,Indonesia,Sumatra,-4.83,103.92,
261260,Sekincau Belirang,Indonesia,Indonesia,Sumatra,-5.12,104.31999999999901,
261270,Suoh,Indonesia,Indonesia,Sumatra,-5.25,104.27,
261280,Hulubelu,Indonesia,Indonesia,Sumatra,-5.35,104.59999999999901,
261290,Rajabasa,Indonesia,Indonesia,Sumatra,-5.78,105.625,
262000,Krakatau,Indonesia,Indonesia,Krakatau,-6.102,105.423,2.0
263010,Pulosari,Indonesia,Indonesia,Java,-6.342,105.97499999999901,
263020,Karang,Indonesia,Indonesia,Java,-6.27,106.042,
263040,Perbakti-Gagak,Indonesia,Indonesia,Java,-6.75,106.7,1.0
263050,Salak,Indonesia,Indonesia,Java,-6.72,106.73,1.0
263060,Gede,Indonesia,Indonesia,Java,-6.78,106.98,1.0
263070,Patuha,Indonesia,Indonesia,Java,-7.16,107.4,
263080,Wayang-Windu,Indonesia,Indonesia,Java,-7.208,107.63,
263081,Malabar,Indonesia,Indonesia,Java,-7.13,107.65,
263090,Tangkubanparahu,Indonesia,Indonesia,Java,-6.77,107.59999999999901,1.0
263100,Papandayan,Indonesia,Indonesia,Java,-7.32,107.73,1.0
263110,Kendang,Indonesia,Indonesia,Java,-7.23,107.72,
263130,Guntur,Indonesia,Indonesia,Java,-7.143,107.84,1.0
263131,Tampomas,Indonesia,Indonesia,Java,-6.77,107.95,
263140,Galunggung,Indonesia,Indonesia,Java,-7.25,108.058,3.0
263150,Talagabodas,Indonesia,Indonesia,Java,-7.208,108.06999999999901,
263160,"Karaha, Kawah",Indonesia,Indonesia,Java,-7.12,108.08,
263170,Cereme,Indonesia,Indonesia,Java,-6.892,108.4,2.0
263180,Slamet,Indonesia,Indonesia,Java,-7.242,109.208,1.0
263200,Dieng Volcanic Large cone(s),Indonesia,Indonesia,Java,-7.2,109.92,1.0
263210,Sundoro,Indonesia,Indonesia,Java,-7.3,109.992,1.0
263220,Sumbing,Indonesia,Indonesia,Java,-7.384,110.06999999999901,
263230,Ungaran,Indonesia,Indonesia,Java,-7.18,110.33,
263231,Telomoyo,Indonesia,Indonesia,Java,-7.37,110.4,
263240,Merbabu,Indonesia,Indonesia,Java,-7.45,110.43,
263250,Merapi,Indonesia,Indonesia,Java,-7.542,110.44199999999901,3.0
263251,Muria,Indonesia,Indonesia,Java,-6.62,110.88,
263260,Lawu,Indonesia,Indonesia,Java,-7.625,111.19199999999901,
263270,Wilis,Indonesia,Indonesia,Java,-7.808,111.758,
263280,Kelut,Indonesia,Indonesia,Java,-7.93,112.308,3.0
263281,Kawi-Butak,Indonesia,Indonesia,Java,-7.92,112.45,
263290,Arjuno-Welirang,Indonesia,Indonesia,Java,-7.725,112.58,
263291,Penanggungan,Indonesia,Indonesia,Java,-7.62,112.63,
263292,Malang Plain,Indonesia,Indonesia,Java,-8.02,112.68,
263300,Semeru,Indonesia,Indonesia,Java,-8.108,112.92,3.0
263310,Tengger Caldera(s),Indonesia,Indonesia,Java,-7.942,112.95,2.0
263320,Lamongan,Indonesia,Indonesia,Java,-7.979,113.342,1.0
263321,Lurus,Indonesia,Indonesia,Java,-7.73,113.58,
263330,Iyang-Argapura,Indonesia,Indonesia,Java,-7.97,113.56999999999901,
263340,Raung,Indonesia,Indonesia,Java,-8.125,114.042,2.0
263350,Ijen,Indonesia,Indonesia,Java,-8.058,114.242,2.0
263351,Baluran,Indonesia,Indonesia,Java,-7.85,114.37,
264001,Bratan,Indonesia,Indonesia,Lesser Sunda Islands,-8.27999999999999,115.13,
264010,Batur,Indonesia,Indonesia,Lesser Sunda Islands,-8.242,115.375,1.0
264020,Agung,Indonesia,Indonesia,Lesser Sunda Islands,-8.342,115.508,
264030,Rinjani,Indonesia,Indonesia,Lesser Sunda Islands,-8.42,116.47,2.0
264040,Tambora,Indonesia,Indonesia,Lesser Sunda Islands,-8.25,118.0,3.0
264050,Sangeang Api,Indonesia,Indonesia,Lesser Sunda Islands,-8.19999999999999,119.06999999999901,2.0
264060,"Sano, Wai",Indonesia,Indonesia,Lesser Sunda Islands,-8.72,120.02,
264070,Poco Leok,Indonesia,Indonesia,Lesser Sunda Islands,-8.68,120.48,
264071,Ranakah,Indonesia,Indonesia,Lesser Sunda Islands,-8.61999999999999,120.52,
264080,Inierie,Indonesia,Indonesia,Lesser Sunda Islands,-8.875,120.95,
264090,Inielika,Indonesia,Indonesia,Lesser Sunda Islands,-8.73,120.98,
264100,Ebulobo,Indonesia,Indonesia,Lesser Sunda Islands,-8.82,121.18,2.0
264110,Iya,Indonesia,Indonesia,Lesser Sunda Islands,-8.897,121.645,2.0
264120,Sukaria Caldera(s),Indonesia,Indonesia,Lesser Sunda Islands,-8.792,121.77,
264130,Ndete Napu,Indonesia,Indonesia,Lesser Sunda Islands,-8.72,121.78,
264140,Kelimutu,Indonesia,Indonesia,Lesser Sunda Islands,-8.77,121.81999999999901,
264150,Paluweh,Indonesia,Indonesia,Lesser Sunda Islands,-8.32,121.708,2.0
264160,Egon,Indonesia,Indonesia,Lesser Sunda Islands,-8.67,122.45,1.0
264170,Ilimuda,Indonesia,Indonesia,Lesser Sunda Islands,-8.478,122.671,
264180,Lewotobi,Indonesia,Indonesia,Lesser Sunda Islands,-8.542,122.775,1.0
264200,Leroboleng,Indonesia,Indonesia,Lesser Sunda Islands,-8.358,122.842,1.0
264220,Iliboleng,Indonesia,Indonesia,Lesser Sunda Islands,-8.342,123.258,1.0
264230,Lewotolo,Indonesia,Indonesia,Lesser Sunda Islands,-8.272,123.505,1.0
264240,Ililabalekan,Indonesia,Indonesia,Lesser Sunda Islands,-8.55,123.38,
264250,Iliwerung,Indonesia,Indonesia,Lesser Sunda Islands,-8.52999999999999,123.56999999999901,2.0
264260,"Tara, Batu",Indonesia,Indonesia,Lesser Sunda Islands,-7.792,123.57899999999901,
264270,Sirung,Indonesia,Indonesia,Lesser Sunda Islands,-8.50799999999999,124.13,1.0
264280,Yersey,Indonesia,Indonesia,Lesser Sunda Islands,-7.53,123.95,
265010,Emperor of China,Indonesia,Indonesia,Banda Sea,-6.62,124.22,
265020,Nieuwerkerk,Indonesia,Indonesia,Banda Sea,-6.6,124.675,
265030,Gunungapi Wetar,Indonesia,Indonesia,Banda Sea,-6.642,126.65,
265040,Wurlali,Indonesia,Indonesia,Banda Sea,-7.125,128.675,
265050,Teon,Indonesia,Indonesia,Banda Sea,-6.92,129.125,3.0
265060,Nila,Indonesia,Indonesia,Banda Sea,-6.73,129.5,1.0
265070,Serua,Indonesia,Indonesia,Banda Sea,-6.3,130.0,2.0
265080,Manuk,Indonesia,Indonesia,Banda Sea,-5.53,130.292,
265090,Banda Api,Indonesia,Indonesia,Banda Sea,-4.525,129.871,1.0
266010,Colo [Una Una],Indonesia,Indonesia,Sulawesi,-0.17,121.608,
266020,Ambang,Indonesia,Indonesia,Sulawesi,0.75,124.42,
266030,Soputan,Indonesia,Indonesia,Sulawesi,1.108,124.73,3.0
266040,Sempu,Indonesia,Indonesia,Sulawesi,1.13,124.758,
266070,Tondano Caldera(s),Indonesia,Indonesia,Sulawesi,1.23,124.83,
266100,Lokon-Empung,Indonesia,Indonesia,Sulawesi,1.358,124.792,3.0
266110,Mahawu,Indonesia,Indonesia,Sulawesi,1.358,124.858,2.0
266120,Klabat,Indonesia,Indonesia,Sulawesi,1.47,125.03,
266130,Tongkoko,Indonesia,Indonesia,Sulawesi,1.52,125.2,2.0
267010,Ruang,Indonesia,Indonesia,Sangihe Islands,2.3,125.37,3.0
267020,Karangetang [Api Siau],Indonesia,Indonesia,Sangihe Islands,2.78,125.4,3.0
267030,Banua Wuhu,Indonesia,Indonesia,Sangihe Islands,3.138,125.491,1.0
267040,Awu,Indonesia,Indonesia,Sangihe Islands,3.67,125.5,3.0
267050,Unnamed,Indonesia,Indonesia,Sangihe Islands,3.97,124.17,
268001,Tarakan,Indonesia,Indonesia,Halmahera,1.83,127.83,
268010,Dukono,Indonesia,Indonesia,Halmahera,1.68,127.88,
268020,Tobaru,Indonesia,Indonesia,Halmahera,1.63,127.67,
268030,Ibu,Indonesia,Indonesia,Halmahera,1.488,127.63,1.0
268040,Gamkonora,Indonesia,Indonesia,Halmahera,1.38,127.53,2.0
268050,Todoko-Ranu,Indonesia,Indonesia,Halmahera,1.25,127.47,
268051,Jailolo,Indonesia,Indonesia,Halmahera,1.08,127.42,
268052,Hiri,Indonesia,Indonesia,Halmahera,0.9,127.31999999999901,
268060,Gamalama,Indonesia,Indonesia,Halmahera,0.8,127.33,2.0
268061,Tidore,Indonesia,Indonesia,Halmahera,0.658,127.4,
268062,Mare,Indonesia,Indonesia,Halmahera,0.57,127.4,
268063,Moti,Indonesia,Indonesia,Halmahera,0.45,127.4,
268070,Makian,Indonesia,Indonesia,Halmahera,0.32,127.4,3.0
268071,Tigalalu,Indonesia,Indonesia,Halmahera,0.07,127.42,
268072,Amasing,Indonesia,Indonesia,Halmahera,-0.53,127.48,
268073,Bibinoi,Indonesia,Indonesia,Halmahera,-0.77,127.72,
269010,Bombalai,Malaysia,Indonesia,Borneo,4.4,117.88,
270010,Jolo,Philippines,Philippines and SE Asia,Sulu Islands,6.013,121.057,
271010,Balut,Philippines,Philippines and SE Asia,Mindanao,5.4,125.375,
271011,Parker,Philippines,Philippines and SE Asia,Mindanao,6.113,124.892,
271020,Matutum,Philippines,Philippines and SE Asia,Mindanao,6.37,125.06999999999901,
271030,Apo,Philippines,Philippines and SE Asia,Mindanao,6.989,125.269,
271031,Leonard Range,Philippines,Philippines and SE Asia,Mindanao,7.382,126.047,
271040,Makaturing,Philippines,Philippines and SE Asia,Mindanao,7.647,124.31999999999901,
271050,Latukan,Philippines,Philippines and SE Asia,Mindanao,7.65,124.45,
271060,Ragang,Philippines,Philippines and SE Asia,Mindanao,7.7,124.5,1.0
271061,Kalatungan,Philippines,Philippines and SE Asia,Mindanao,7.95,124.8,
271070,Musuan,Philippines,Philippines and SE Asia,Mindanao,7.877,125.068,
271071,Malindang,Philippines,Philippines and SE Asia,Mindanao,8.22,123.63,
271072,Balatukan,Philippines,Philippines and SE Asia,Mindanao,8.77,124.98,
271080,Camiguin,Philippines,Philippines and SE Asia,Mindanao,9.20299999999999,124.673,3.0
271090,Paco,Philippines,Philippines and SE Asia,Mindanao,9.593,125.52,
272010,Cuernos de Negros,Philippines,Philippines and SE Asia,Central Philippines,9.25,123.17,
272020,Kanlaon,Philippines,Philippines and SE Asia,Central Philippines,10.412,123.132,1.0
272030,Mandalagan,Philippines,Philippines and SE Asia,Central Philippines,10.65,123.25,
272040,Silay,Philippines,Philippines and SE Asia,Central Philippines,10.77,123.23,
272050,Cabal?an,Philippines,Philippines and SE Asia,Central Philippines,10.287,125.221,
272070,Mahagnao,Philippines,Philippines and SE Asia,Central Philippines,10.896,124.87,
272080,Biliran,Philippines,Philippines and SE Asia,Central Philippines,11.523,124.535,
273010,Bulusan,Philippines,Philippines and SE Asia,Luzon,12.77,124.05,2.0
273020,Pocdol Mountains,Philippines,Philippines and SE Asia,Luzon,13.05,123.958,
273030,Mayon,Philippines,Philippines and SE Asia,Luzon,13.257,123.685,3.0
273031,Masaraga,Philippines,Philippines and SE Asia,Luzon,13.32,123.59999999999901,
273041,Iriga,Philippines,Philippines and SE Asia,Luzon,13.457,123.45699999999901,
273042,Isarog,Philippines,Philippines and SE Asia,Luzon,13.6579999999999,123.38,
273044,Malindig,Philippines,Philippines and SE Asia,Luzon,13.24,122.018,
273050,Banahaw,Philippines,Philippines and SE Asia,Luzon,14.07,121.48,
273060,San Pablo Volcanic Field,Philippines,Philippines and SE Asia,Luzon,14.1199999999999,121.3,
273070,Taal,Philippines,Philippines and SE Asia,Luzon,14.002,120.99299999999901,3.0
273080,Laguna Caldera(s),Philippines,Philippines and SE Asia,Luzon,14.42,121.27,
273081,Mariveles,Philippines,Philippines and SE Asia,Luzon,14.52,120.47,
273082,Natib,Philippines,Philippines and SE Asia,Luzon,14.72,120.4,
273083,Pinatubo,Philippines,Philippines and SE Asia,Luzon,15.13,120.34999999999901,
273084,Arayat,Philippines,Philippines and SE Asia,Luzon,15.1999999999999,120.742,
273085,Amorong,Philippines,Philippines and SE Asia,Luzon,15.8279999999999,120.805,
273086,Santo Tomas,Philippines,Philippines and SE Asia,Luzon,16.3299999999999,120.55,
273087,Patoc,Philippines,Philippines and SE Asia,Luzon,17.1469999999999,120.98,
273088,Ambalatungan Group,Philippines,Philippines and SE Asia,Luzon,17.32,121.09999999999901,
273090,Cagua,Philippines,Philippines and SE Asia,Luzon,18.222,122.123,
274010,Camiguin de Babuyanes,Philippines,Philippines and SE Asia,North of Luzon,18.8299999999999,121.86,
274020,Didicas,Philippines,Philippines and SE Asia,North of Luzon,19.077,122.202,1.0
274030,Babuyan Claro,Philippines,Philippines and SE Asia,North of Luzon,19.523,121.94,2.0
274050,Unnamed,Philippines,Philippines and SE Asia,North of Luzon,20.3299999999999,121.75,
274060,Iraya,Philippines,Philippines and SE Asia,North of Luzon,20.469,122.01,
275001,Hainan Dao,China,Philippines and SE Asia,Southeast Asia,19.699999999999896,110.09999999999901,
275010,Leizhou Bandao,China,Philippines and SE Asia,Southeast Asia,20.78,110.17,
275020,C?-Lao R? Group,Vietnam,Philippines and SE Asia,Southeast Asia,15.38,109.12,
275030,Toroeng Prong,Vietnam,Philippines and SE Asia,Southeast Asia,14.93,108.0,
275040,Haut Dong Nai,Vietnam,Philippines and SE Asia,Southeast Asia,11.6,108.2,
275050,Bas Dong Nai,Vietnam,Philippines and SE Asia,Southeast Asia,10.8,107.2,
275060,"Cendres, Ile des",Vietnam,Philippines and SE Asia,Southeast Asia,10.1579999999999,109.014,
275070,Veteran,Vietnam,Philippines and SE Asia,Southeast Asia,9.83,109.05,
275080,Popa,Burma (Myanmar),Philippines and SE Asia,Southeast Asia,20.92,95.25,
275090,Lower Chindwin,Burma (Myanmar),Philippines and SE Asia,Southeast Asia,22.28,95.09999999999991,
275100,Singu Plateau,Burma (Myanmar),Philippines and SE Asia,Southeast Asia,22.6999999999999,95.98,
275110,Tengchong,China,Philippines and SE Asia,Southeast Asia,25.23,98.5,
281010,Unnamed,Taiwan,"Japan, Taiwan, Marianas",Taiwan,20.93,134.75,
281011,Unnamed,Taiwan,"Japan, Taiwan, Marianas",Taiwan,19.17,132.25,
281020,Unnamed,Taiwan,"Japan, Taiwan, Marianas",Taiwan,21.8299999999999,121.18,
281030,Unnamed,Taiwan,"Japan, Taiwan, Marianas",Taiwan,24.0,121.83,
281031,Kueishantao,Taiwan,"Japan, Taiwan, Marianas",Taiwan,24.85,121.92,
281032,Tatun Group,Taiwan,"Japan, Taiwan, Marianas",Taiwan,25.17,121.52,
281040,Unnamed,Taiwan,"Japan, Taiwan, Marianas",Taiwan,25.3999999999999,122.2,
281050,Zengyu,Taiwan,"Japan, Taiwan, Marianas",Taiwan,26.18,122.458,
282010,Submarine Volcano NNE of Iriomotejima,Japan,"Japan, Taiwan, Marianas",Ryukyu Islands and Kyushu,24.57,123.93,
282020,Io-Torishima,Japan,"Japan, Taiwan, Marianas",Ryukyu Islands and Kyushu,27.881,128.223,1.0
282021,Yokoate-jima,Japan,"Japan, Taiwan, Marianas",Ryukyu Islands and Kyushu,28.797,128.997,
282022,Akuseki-jima,Japan,"Japan, Taiwan, Marianas",Ryukyu Islands and Kyushu,29.4609999999999,129.597,
282030,Suwanosejima,Japan,"Japan, Taiwan, Marianas",Ryukyu Islands and Kyushu,29.638,129.714,2.0
282040,Nakanoshima,Japan,"Japan, Taiwan, Marianas",Ryukyu Islands and Kyushu,29.856,129.859,
282041,Kogaja-jima,Japan,"Japan, Taiwan, Marianas",Ryukyu Islands and Kyushu,29.879,129.625,
282043,Kuchinoshima,Japan,"Japan, Taiwan, Marianas",Ryukyu Islands and Kyushu,29.9639999999999,129.926999999999,
282050,Kuchinoerabujima,Japan,"Japan, Taiwan, Marianas",Ryukyu Islands and Kyushu,30.443,130.217,2.0
282060,Kikai,Japan,"Japan, Taiwan, Marianas",Ryukyu Islands and Kyushu,30.789,130.307999999999,2.0
282070,Ibusuki Volcanic Field,Japan,"Japan, Taiwan, Marianas",Ryukyu Islands and Kyushu,31.2199999999999,130.569999999999,2.0
282080,Sakurajima,Japan,"Japan, Taiwan, Marianas",Ryukyu Islands and Kyushu,31.593,130.657,3.0
282081,Sumiyoshi-ike,Japan,"Japan, Taiwan, Marianas",Ryukyu Islands and Kyushu,31.768,130.593999999999,
282090,Kirishimayama,Japan,"Japan, Taiwan, Marianas",Ryukyu Islands and Kyushu,31.934,130.861999999999,2.0
282091,Fukue Volcanoes,Japan,"Japan, Taiwan, Marianas",Ryukyu Islands and Kyushu,32.6569999999999,128.848999999999,
282100,Unzendake,Japan,"Japan, Taiwan, Marianas",Ryukyu Islands and Kyushu,32.761,130.299,3.0
282110,Asosan,Japan,"Japan, Taiwan, Marianas",Ryukyu Islands and Kyushu,32.884,131.104,1.0
282120,Kujusan,Japan,"Japan, Taiwan, Marianas",Ryukyu Islands and Kyushu,33.0859999999999,131.249,
282130,Tsurumi,Japan,"Japan, Taiwan, Marianas",Ryukyu Islands and Kyushu,33.28,131.43199999999902,
283001,Abu,Japan,"Japan, Taiwan, Marianas",Honshu,34.5,131.599999999999,
283002,Sanbe,Japan,"Japan, Taiwan, Marianas",Honshu,35.1409999999999,131.40199999999902,
283003,Oki-Dogo,Japan,"Japan, Taiwan, Marianas",Honshu,36.176,133.334,
283010,Izu-Tobu Volcanoes,Japan,"Japan, Taiwan, Marianas",Honshu,34.8999999999999,139.098,
283020,Hakone,Japan,"Japan, Taiwan, Marianas",Honshu,35.2299999999999,139.024,
283030,Fuji,Japan,"Japan, Taiwan, Marianas",Honshu,35.3579999999999,138.730999999999,3.0
283031,Kita Yatsuga-take,Japan,"Japan, Taiwan, Marianas",Honshu,36.1,138.3,
283040,On-take,Japan,"Japan, Taiwan, Marianas",Honshu,35.89,137.479999999999,
283050,Haku-san,Japan,"Japan, Taiwan, Marianas",Honshu,36.152,136.774,3.0
283060,Norikura,Japan,"Japan, Taiwan, Marianas",Honshu,36.103,137.55699999999902,
283070,Yake-dake,Japan,"Japan, Taiwan, Marianas",Honshu,36.223999999999904,137.59,2.0
283071,Washiba-Kumonotaira,Japan,"Japan, Taiwan, Marianas",Honshu,36.408,137.593999999999,
283080,Tate-yama,Japan,"Japan, Taiwan, Marianas",Honshu,36.567999999999905,137.592999999999,
283090,Niigata-Yake-yama,Japan,"Japan, Taiwan, Marianas",Honshu,36.91799999999991,138.03899999999902,3.0
283100,Myoko,Japan,"Japan, Taiwan, Marianas",Honshu,36.887999999999906,138.12,
283110,Asama,Japan,"Japan, Taiwan, Marianas",Honshu,36.402999999999906,138.526,2.0
283120,Kusatsu-Shirane,Japan,"Japan, Taiwan, Marianas",Honshu,36.619999999999905,138.535,2.0
283121,Shiga,Japan,"Japan, Taiwan, Marianas",Honshu,36.688,138.519,
283122,Haruna,Japan,"Japan, Taiwan, Marianas",Honshu,36.473999999999904,138.881,
283130,Akagi,Japan,"Japan, Taiwan, Marianas",Honshu,36.557,139.196,
283131,Hiuchi,Japan,"Japan, Taiwan, Marianas",Honshu,36.951999999999906,139.28899999999902,
283140,Nikko-Shirane,Japan,"Japan, Taiwan, Marianas",Honshu,36.79599999999991,139.378999999999,1.0
283141,Nantai,Japan,"Japan, Taiwan, Marianas",Honshu,36.762,139.494,
283142,Omanago Group,Japan,"Japan, Taiwan, Marianas",Honshu,36.792,139.509999999999,
283143,Takahara,Japan,"Japan, Taiwan, Marianas",Honshu,36.896999999999906,139.78,
283150,Nasu,Japan,"Japan, Taiwan, Marianas",Honshu,37.122,139.966,1.0
283151,Numazawa,Japan,"Japan, Taiwan, Marianas",Honshu,37.45,139.579,
283160,Bandai,Japan,"Japan, Taiwan, Marianas",Honshu,37.59799999999991,140.075999999999,2.0
283170,Adatara,Japan,"Japan, Taiwan, Marianas",Honshu,37.643999999999906,140.286,
283180,Azuma,Japan,"Japan, Taiwan, Marianas",Honshu,37.73199999999991,140.247999999999,1.0
283190,Zao,Japan,"Japan, Taiwan, Marianas",Honshu,38.140999999999906,140.443,2.0
283191,Hijiori,Japan,"Japan, Taiwan, Marianas",Honshu,38.606,140.178,
283200,Narugo,Japan,"Japan, Taiwan, Marianas",Honshu,38.732999999999905,140.732,
283210,Kurikoma,Japan,"Japan, Taiwan, Marianas",Honshu,38.957999999999906,140.792,2.0
283220,Chokai,Japan,"Japan, Taiwan, Marianas",Honshu,39.095999999999904,140.051999999999,2.0
283230,Akita-Komaga-take,Japan,"Japan, Taiwan, Marianas",Honshu,39.758,140.803,2.0
283240,Iwate,Japan,"Japan, Taiwan, Marianas",Honshu,39.85,141.003999999999,
283250,Hachimantai,Japan,"Japan, Taiwan, Marianas",Honshu,39.954999999999906,140.857,
283260,Akita-Yake-yama,Japan,"Japan, Taiwan, Marianas",Honshu,39.960999999999906,140.761,2.0
283262,Megata,Japan,"Japan, Taiwan, Marianas",Honshu,39.95,139.729999999999,
283270,Iwaki,Japan,"Japan, Taiwan, Marianas",Honshu,40.652999999999906,140.30699999999902,2.0
283271,Towada,Japan,"Japan, Taiwan, Marianas",Honshu,40.46999999999991,140.91999999999902,3.0
283280,Hakkoda Group,Japan,"Japan, Taiwan, Marianas",Honshu,40.655999999999906,140.881,1.0
283290,Osore-yama,Japan,"Japan, Taiwan, Marianas",Honshu,41.276,141.124,
284010,Oshima,Japan,"Japan, Taiwan, Marianas","Izu, Volcano, and Mariana Islands",34.7209999999999,139.398,1.0
284011,To-shima,Japan,"Japan, Taiwan, Marianas","Izu, Volcano, and Mariana Islands",34.517,139.28299999999902,
284020,Nii-jima,Japan,"Japan, Taiwan, Marianas","Izu, Volcano, and Mariana Islands",34.393,139.273,
284030,Kozu-shima,Japan,"Japan, Taiwan, Marianas","Izu, Volcano, and Mariana Islands",34.216,139.156,
284040,Miyake-jima,Japan,"Japan, Taiwan, Marianas","Izu, Volcano, and Mariana Islands",34.079,139.529,1.0
284041,Mikura-jima,Japan,"Japan, Taiwan, Marianas","Izu, Volcano, and Mariana Islands",33.871,139.604999999999,
284042,Kurose Hole,Japan,"Japan, Taiwan, Marianas","Izu, Volcano, and Mariana Islands",33.3999999999999,139.68,
284050,Hachijo-jima,Japan,"Japan, Taiwan, Marianas","Izu, Volcano, and Mariana Islands",33.13,139.769,3.0
284060,Aoga-shima,Japan,"Japan, Taiwan, Marianas","Izu, Volcano, and Mariana Islands",32.454,139.762,3.0
284061,Myojin Knoll,Japan,"Japan, Taiwan, Marianas","Izu, Volcano, and Mariana Islands",32.1,139.849999999999,
284070,Bayonnaise Rocks,Japan,"Japan, Taiwan, Marianas","Izu, Volcano, and Mariana Islands",31.8799999999999,139.91999999999902,1.0
284080,Smith Rock,Japan,"Japan, Taiwan, Marianas","Izu, Volcano, and Mariana Islands",31.436,140.054,
284090,Tori-shima,Japan,"Japan, Taiwan, Marianas","Izu, Volcano, and Mariana Islands",30.48,140.306,1.0
284091,Sofugan,Japan,"Japan, Taiwan, Marianas","Izu, Volcano, and Mariana Islands",29.789,140.345,
284093,Suiyo Seamount,Japan,"Japan, Taiwan, Marianas","Izu, Volcano, and Mariana Islands",28.6,140.63,
284094,Mokuyo Seamount,Japan,"Japan, Taiwan, Marianas","Izu, Volcano, and Mariana Islands",28.32,140.569999999999,
284095,Doyo Seamount,Japan,"Japan, Taiwan, Marianas","Izu, Volcano, and Mariana Islands",27.68,140.8,
284096,Nishino-shima,Japan,"Japan, Taiwan, Marianas","Izu, Volcano, and Mariana Islands",27.274,140.882,
284097,Kaikata Seamount,Japan,"Japan, Taiwan, Marianas","Izu, Volcano, and Mariana Islands",26.67,141.0,
284100,Kaitoku Seamount,Japan,"Japan, Taiwan, Marianas","Izu, Volcano, and Mariana Islands",26.122,141.102,
284101,Unnamed,Japan,"Japan, Taiwan, Marianas","Izu, Volcano, and Mariana Islands",26.1299999999999,144.479999999999,
284110,Kita-Iwo-jima,Japan,"Japan, Taiwan, Marianas","Izu, Volcano, and Mariana Islands",25.4239999999999,141.283999999999,
284120,Ioto [Iwo-jima],Japan,"Japan, Taiwan, Marianas","Izu, Volcano, and Mariana Islands",24.754,141.289999999999,1.0
284121,Kita-Fukutokutai,Japan,"Japan, Taiwan, Marianas","Izu, Volcano, and Mariana Islands",24.414,141.419,
284130,Fukutoku-Okanoba,Japan,"Japan, Taiwan, Marianas","Izu, Volcano, and Mariana Islands",24.28,141.485,1.0
284131,Minami-Hiyoshi,Japan,"Japan, Taiwan, Marianas","Izu, Volcano, and Mariana Islands",23.497,141.94,
284132,Nikko,Japan,"Japan, Taiwan, Marianas","Izu, Volcano, and Mariana Islands",23.0749999999999,142.307999999999,
284133,Fukujin,Japan,"Japan, Taiwan, Marianas","Izu, Volcano, and Mariana Islands",21.93,143.47,
284134,Kasuga,Japan,"Japan, Taiwan, Marianas","Izu, Volcano, and Mariana Islands",21.765,143.71,
284135,Minami Kasuga,Japan,"Japan, Taiwan, Marianas","Izu, Volcano, and Mariana Islands",21.6,143.637,
284136,NW Eifuku,Japan,"Japan, Taiwan, Marianas","Izu, Volcano, and Mariana Islands",21.4849999999999,144.043,
284137,Daikoku,Japan,"Japan, Taiwan, Marianas","Izu, Volcano, and Mariana Islands",21.324,144.19399999999902,
284138,Unnamed,United States,"Japan, Taiwan, Marianas","Izu, Volcano, and Mariana Islands",21.0,142.9,
284139,Unnamed,United States,"Japan, Taiwan, Marianas","Izu, Volcano, and Mariana Islands",20.3,143.19999999999902,
284140,Farallon de Pajaros,United States,"Japan, Taiwan, Marianas","Izu, Volcano, and Mariana Islands",20.538,144.89599999999902,1.0
284141,Ahyi,United States,"Japan, Taiwan, Marianas","Izu, Volcano, and Mariana Islands",20.42,145.03,
284142,Supply Reef,United States,"Japan, Taiwan, Marianas","Izu, Volcano, and Mariana Islands",20.129999999999896,145.099999999999,
284143,Maug Islands,United States,"Japan, Taiwan, Marianas","Izu, Volcano, and Mariana Islands",20.02,145.22,
284150,Asuncion,United States,"Japan, Taiwan, Marianas","Izu, Volcano, and Mariana Islands",19.670999999999896,145.406,
284160,Agrigan,United States,"Japan, Taiwan, Marianas","Izu, Volcano, and Mariana Islands",18.77,145.66999999999902,
284170,Pagan,United States,"Japan, Taiwan, Marianas","Izu, Volcano, and Mariana Islands",18.129999999999896,145.8,3.0
284180,Alamagan,United States,"Japan, Taiwan, Marianas","Izu, Volcano, and Mariana Islands",17.6,145.83,
284190,Guguan,United States,"Japan, Taiwan, Marianas","Izu, Volcano, and Mariana Islands",17.3069999999999,145.845,
284191,Zealandia Bank,United States,"Japan, Taiwan, Marianas","Izu, Volcano, and Mariana Islands",16.8799999999999,145.849999999999,
284192,Sarigan,United States,"Japan, Taiwan, Marianas","Izu, Volcano, and Mariana Islands",16.7079999999999,145.78,
284193,South Sarigan Seamount,United States,"Japan, Taiwan, Marianas","Izu, Volcano, and Mariana Islands",16.5799999999999,145.78,
284200,Anatahan,United States,"Japan, Taiwan, Marianas","Izu, Volcano, and Mariana Islands",16.35,145.66999999999902,3.0
284201,East Diamante,United States,"Japan, Taiwan, Marianas","Izu, Volcano, and Mariana Islands",15.93,145.66999999999902,
284202,Ruby,United States,"Japan, Taiwan, Marianas","Izu, Volcano, and Mariana Islands",15.6199999999999,145.569999999999,
284210,Esmeralda Bank,United States,"Japan, Taiwan, Marianas","Izu, Volcano, and Mariana Islands",15.0,145.25,
284211,NW Rota-1,United States,"Japan, Taiwan, Marianas","Izu, Volcano, and Mariana Islands",14.601,144.775,
284220,Forecast Seamount,United States,"Japan, Taiwan, Marianas","Izu, Volcano, and Mariana Islands",13.4,143.91999999999902,
284230,Seamount X,United States,"Japan, Taiwan, Marianas","Izu, Volcano, and Mariana Islands",13.25,144.02,
285010,Oshima-Oshima,Japan,"Japan, Taiwan, Marianas",Hokkaido,41.506999999999906,139.371,
285011,E-san,Japan,"Japan, Taiwan, Marianas",Hokkaido,41.802,141.16999999999902,
285020,Komaga-take,Japan,"Japan, Taiwan, Marianas",Hokkaido,42.061,140.681,3.0
285030,Usu,Japan,"Japan, Taiwan, Marianas",Hokkaido,42.540999999999904,140.842999999999,3.0
285031,Niseko,Japan,"Japan, Taiwan, Marianas",Hokkaido,42.88,140.63,
285032,Yotei,Japan,"Japan, Taiwan, Marianas",Hokkaido,42.829999999999906,140.815,
285034,Kuttara,Japan,"Japan, Taiwan, Marianas",Hokkaido,42.488999999999905,141.163,
285040,Shikotsu,Japan,"Japan, Taiwan, Marianas",Hokkaido,42.688,141.38,3.0
285041,Rishiri,Japan,"Japan, Taiwan, Marianas",Hokkaido,45.18,141.25,
285050,Tokachi,Japan,"Japan, Taiwan, Marianas",Hokkaido,43.415999999999904,142.69,3.0
285060,Daisetsu,Japan,"Japan, Taiwan, Marianas",Hokkaido,43.661,142.858,
285061,Nipesotsu-Maruyama,Japan,"Japan, Taiwan, Marianas",Hokkaido,43.453,143.036,
285062,Shikaribetsu Group,Japan,"Japan, Taiwan, Marianas",Hokkaido,43.311999999999905,143.096,
285070,Akan,Japan,"Japan, Taiwan, Marianas",Hokkaido,43.384,144.013,1.0
285080,Kutcharo,Japan,"Japan, Taiwan, Marianas",Hokkaido,43.607999999999905,144.443,
285081,Mashu,Japan,"Japan, Taiwan, Marianas",Hokkaido,43.572,144.561,3.0
285082,Rausudake,Japan,"Japan, Taiwan, Marianas",Hokkaido,44.076,145.122,3.0
285083,Tenchozan,Japan,"Japan, Taiwan, Marianas",Hokkaido,44.043999999999905,145.086,
285090,Shiretoko-Iozan,Japan,"Japan, Taiwan, Marianas",Hokkaido,44.133,145.161,1.0
290010,Tomariyama [Golovnin],Japan - administered by Russia,Kuril Islands,Kuril Islands,43.844,145.503999999999,
290020,Raususan [Mendeleev],Japan - administered by Russia,Kuril Islands,Kuril Islands,43.97899999999991,145.733,
290021,Ruruidake [Smirnov],Japan - administered by Russia,Kuril Islands,Kuril Islands,44.454,146.139,
290030,Chachadake [Tiatia],Japan - administered by Russia,Kuril Islands,Kuril Islands,44.353,146.252,2.0
290040,Berutarubesan [Berutarube],Japan - administered by Russia,Kuril Islands,Kuril Islands,44.462,146.93199999999902,
290041,Moekeshiwan [Lvinaya Past],Japan - administered by Russia,Kuril Islands,Kuril Islands,44.607999999999905,146.994,
290050,Etorofu-Atsonupuri [Atsonupuri],Japan - administered by Russia,Kuril Islands,Kuril Islands,44.808,147.131,
290060,Nishihitokappuyama [Bogatyr Ridge],Japan - administered by Russia,Kuril Islands,Kuril Islands,44.832999999999906,147.342,
290061,Unnamed,Japan - administered by Russia,Kuril Islands,Kuril Islands,45.03,147.208,
290070,Etorofu-Yakeyama [Grozny Group],Japan - administered by Russia,Kuril Islands,Kuril Islands,45.012,147.871,2.0
290072,Odamoisan [Tebenkov],Japan - administered by Russia,Kuril Islands,Kuril Islands,45.026,147.922,
290080,Sashiusudake [Baransky],Japan - administered by Russia,Kuril Islands,Kuril Islands,45.1,148.019,
290090,Chirippusan [Chirip],Japan - administered by Russia,Kuril Islands,Kuril Islands,45.338,147.91999999999902,
290091,Rucharuyama [Golets-Tornyi Group],Japan - administered by Russia,Kuril Islands,Kuril Islands,45.25,148.349999999999,
290100,Moyorodake [Medvezhia],Japan - administered by Russia,Kuril Islands,Kuril Islands,45.389,148.837999999999,1.0
290110,Rakkibetsudake [Demon],Japan - administered by Russia,Kuril Islands,Kuril Islands,45.5,148.849999999999,
290111,Ivao Group,Russia,Kuril Islands,Kuril Islands,45.77,149.68,
290112,Rudakov,Russia,Kuril Islands,Kuril Islands,45.88,149.83,
290113,Tri Sestry,Russia,Kuril Islands,Kuril Islands,45.93,149.91999999999902,
290120,Kolokol Group,Russia,Kuril Islands,Kuril Islands,46.042,150.05,1.0
290130,Unnamed,Russia,Kuril Islands,Kuril Islands,46.1,150.5,
290150,Chirpoi,Russia,Kuril Islands,Kuril Islands,46.52499999999989,150.875,2.0
290160,Unnamed,Russia,Kuril Islands,Kuril Islands,46.46999999999989,151.28,
290161,Milne,Russia,Kuril Islands,Kuril Islands,46.82,151.78,
290170,Goriaschaia Sopka,Russia,Kuril Islands,Kuril Islands,46.82999999999989,151.75,1.0
290180,Zavaritzki Caldera(s),Russia,Kuril Islands,Kuril Islands,46.9249999999999,151.94999999999902,
290190,Prevo Peak,Russia,Kuril Islands,Kuril Islands,47.02,152.12,
290191,Urataman,Russia,Kuril Islands,Kuril Islands,47.1199999999999,152.25,
290200,Ketoi,Russia,Kuril Islands,Kuril Islands,47.35,152.474999999999,
290210,Ushishur,Russia,Kuril Islands,Kuril Islands,47.52,152.8,
290211,Srednii,Russia,Kuril Islands,Kuril Islands,47.6,152.91999999999902,
290220,Rasshua,Russia,Kuril Islands,Kuril Islands,47.77,153.02,
290230,Unnamed,Russia,Kuril Islands,Kuril Islands,48.07999999999989,153.33,
290240,Sarychev Peak,Russia,Kuril Islands,Kuril Islands,48.09199999999989,153.19999999999902,3.0
290250,Raikoke,Russia,Kuril Islands,Kuril Islands,48.292,153.25,
290260,Chirinkotan,Russia,Kuril Islands,Kuril Islands,48.9799999999999,153.479999999999,1.0
290270,Ekarma,Russia,Kuril Islands,Kuril Islands,48.95799999999989,153.93,
290290,Sinarka,Russia,Kuril Islands,Kuril Islands,48.875,154.175,3.0
290300,Kharimkotan,Russia,Kuril Islands,Kuril Islands,49.1199999999999,154.508,3.0
290310,Tao-Rusyr Caldera(s),Russia,Kuril Islands,Kuril Islands,49.35,154.69999999999902,
290320,Nemo Peak,Russia,Kuril Islands,Kuril Islands,49.57,154.807999999999,
290331,Shirinki,Russia,Kuril Islands,Kuril Islands,50.2,154.979999999999,
290340,Fuss Peak,Russia,Kuril Islands,Kuril Islands,50.27,155.25,
290350,Karpinsky Group,Russia,Kuril Islands,Kuril Islands,50.13,155.37,
290360,Chikurachki,Russia,Kuril Islands,Kuril Islands,50.325,155.458,2.0
290370,Vernadskii Ridge,Russia,Kuril Islands,Kuril Islands,50.5499999999999,155.97,
290380,Ebeko,Russia,Kuril Islands,Kuril Islands,50.68,156.02,2.0
290390,Alaid,Russia,Kuril Islands,Kuril Islands,50.8579999999999,155.55,2.0
300001,Mashkovtsev,Russia,Kamchatka and Mainland Asia,Kamchatka Peninsula,51.1,156.72,
300010,Kambalny,Russia,Kamchatka and Mainland Asia,Kamchatka Peninsula,51.2999999999999,156.87,
300020,Koshelev,Russia,Kamchatka and Mainland Asia,Kamchatka Peninsula,51.35699999999989,156.75,
300021,Yavinsky,Russia,Kamchatka and Mainland Asia,Kamchatka Peninsula,51.57,156.599999999999,
300022,Diky Greben,Russia,Kamchatka and Mainland Asia,Kamchatka Peninsula,51.45,156.97,
300023,Kurile Lake,Russia,Kamchatka and Mainland Asia,Kamchatka Peninsula,51.45,157.12,
300030,Ilyinsky,Russia,Kamchatka and Mainland Asia,Kamchatka Peninsula,51.49,157.19999999999902,
300040,Zheltovsky,Russia,Kamchatka and Mainland Asia,Kamchatka Peninsula,51.57,157.323,
300041,Kell,Russia,Kamchatka and Mainland Asia,Kamchatka Peninsula,51.64999999999989,157.349999999999,
300042,Belenkaya,Russia,Kamchatka and Mainland Asia,Kamchatka Peninsula,51.75,157.27,
300050,Ksudach,Russia,Kamchatka and Mainland Asia,Kamchatka Peninsula,51.7999999999999,157.53,
300051,Ozernoy,Russia,Kamchatka and Mainland Asia,Kamchatka Peninsula,51.88,157.38,
300052,Olkoviy Volcanic Group,Russia,Kamchatka and Mainland Asia,Kamchatka Peninsula,52.02,157.53,
300053,Khodutka,Russia,Kamchatka and Mainland Asia,Kamchatka Peninsula,52.063,157.703,
300054,Piratkovsky,Russia,Kamchatka and Mainland Asia,Kamchatka Peninsula,52.113,157.848999999999,
300055,Ostanets,Russia,Kamchatka and Mainland Asia,Kamchatka Peninsula,52.146,157.322,
300056,Otdelniy,Russia,Kamchatka and Mainland Asia,Kamchatka Peninsula,52.21999999999989,157.428,
300057,Golaya,Russia,Kamchatka and Mainland Asia,Kamchatka Peninsula,52.2629999999999,157.787,
300058,Asacha,Russia,Kamchatka and Mainland Asia,Kamchatka Peninsula,52.3549999999999,157.827,
300059,Visokiy,Russia,Kamchatka and Mainland Asia,Kamchatka Peninsula,52.43,157.93,
300060,Mutnovsky,Russia,Kamchatka and Mainland Asia,Kamchatka Peninsula,52.453,158.194999999999,1.0
300070,Gorely,Russia,Kamchatka and Mainland Asia,Kamchatka Peninsula,52.558,158.03,1.0
300080,Opala,Russia,Kamchatka and Mainland Asia,Kamchatka Peninsula,52.54299999999989,157.335,
300081,Unnamed,Russia,Kamchatka and Mainland Asia,Kamchatka Peninsula,52.57,157.02,
300082,Tolmachev Dol,Russia,Kamchatka and Mainland Asia,Kamchatka Peninsula,52.63,157.58,
300083,Vilyuchik,Russia,Kamchatka and Mainland Asia,Kamchatka Peninsula,52.7,158.28,
300084,Barkhatnaya Sopka,Russia,Kamchatka and Mainland Asia,Kamchatka Peninsula,52.823,158.27,
300085,Unnamed,Russia,Kamchatka and Mainland Asia,Kamchatka Peninsula,52.92,158.52,
300086,Unnamed,Russia,Kamchatka and Mainland Asia,Kamchatka Peninsula,52.88,158.3,
300087,Bolshe-Bannaya,Russia,Kamchatka and Mainland Asia,Kamchatka Peninsula,52.89999999999989,157.78,
300090,Koryaksky,Russia,Kamchatka and Mainland Asia,Kamchatka Peninsula,53.32,158.68799999999902,3.0
300100,Avachinsky,Russia,Kamchatka and Mainland Asia,Kamchatka Peninsula,53.255,158.83,3.0
300110,Dzenzursky,Russia,Kamchatka and Mainland Asia,Kamchatka Peninsula,53.637,158.922,
300120,Zhupanovsky,Russia,Kamchatka and Mainland Asia,Kamchatka Peninsula,53.59,159.146999999999,1.0
300121,Veer,Russia,Kamchatka and Mainland Asia,Kamchatka Peninsula,53.75,158.44999999999902,
300122,Kostakan,Russia,Kamchatka and Mainland Asia,Kamchatka Peninsula,53.82999999999989,158.05,1.0
300123,Bakening,Russia,Kamchatka and Mainland Asia,Kamchatka Peninsula,53.905,158.069999999999,
300124,Zavaritsky,Russia,Kamchatka and Mainland Asia,Kamchatka Peninsula,53.905,158.384999999999,
300125,Akademia Nauk,Russia,Kamchatka and Mainland Asia,Kamchatka Peninsula,53.9799999999999,159.44999999999902,
300130,Karymsky,Russia,Kamchatka and Mainland Asia,Kamchatka Peninsula,54.0499999999999,159.44999999999902,2.0
300140,Maly Semiachik,Russia,Kamchatka and Mainland Asia,Kamchatka Peninsula,54.13,159.66999999999902,2.0
300150,Bolshoi Semiachik,Russia,Kamchatka and Mainland Asia,Kamchatka Peninsula,54.32,160.02,
300160,Taunshits,Russia,Kamchatka and Mainland Asia,Kamchatka Peninsula,54.53,159.8,
300170,Uzon,Russia,Kamchatka and Mainland Asia,Kamchatka Peninsula,54.5,159.97,
300180,Kikhpinych,Russia,Kamchatka and Mainland Asia,Kamchatka Peninsula,54.487,160.25299999999902,2.0
300190,Krasheninnikov,Russia,Kamchatka and Mainland Asia,Kamchatka Peninsula,54.593,160.273,2.0
300200,Kronotsky,Russia,Kamchatka and Mainland Asia,Kamchatka Peninsula,54.753,160.52699999999902,
300201,Schmidt,Russia,Kamchatka and Mainland Asia,Kamchatka Peninsula,54.92,160.63,
300210,Gamchen,Russia,Kamchatka and Mainland Asia,Kamchatka Peninsula,54.97299999999989,160.702,
300220,Komarov,Russia,Kamchatka and Mainland Asia,Kamchatka Peninsula,55.0319999999999,160.72,
300221,Vysoky,Russia,Kamchatka and Mainland Asia,Kamchatka Peninsula,55.07,160.77,
300230,Kizimen,Russia,Kamchatka and Mainland Asia,Kamchatka Peninsula,55.13,160.319999999999,
300232,Unnamed,Russia,Kamchatka and Mainland Asia,Kamchatka Peninsula,55.92,161.75,
300240,Tolbachik,Russia,Kamchatka and Mainland Asia,Kamchatka Peninsula,55.82999999999989,160.33,2.0
300241,Udina,Russia,Kamchatka and Mainland Asia,Kamchatka Peninsula,55.755,160.52699999999902,
300242,Zimina,Russia,Kamchatka and Mainland Asia,Kamchatka Peninsula,55.862,160.603,
300250,Bezymianny,Russia,Kamchatka and Mainland Asia,Kamchatka Peninsula,55.978,160.586999999999,3.0
300251,Kamen,Russia,Kamchatka and Mainland Asia,Kamchatka Peninsula,56.02,160.592999999999,
300260,Kliuchevskoi,Russia,Kamchatka and Mainland Asia,Kamchatka Peninsula,56.057,160.638,2.0
300261,Ushkovsky,Russia,Kamchatka and Mainland Asia,Kamchatka Peninsula,56.07,160.47,
300270,Shiveluch,Russia,Kamchatka and Mainland Asia,Kamchatka Peninsula,56.65299999999989,161.36,3.0
300271,Piip,Russia,Kamchatka and Mainland Asia,Kamchatka Peninsula,55.42,167.33,
300272,Khangar,Russia,Kamchatka and Mainland Asia,Kamchatka Peninsula,54.75,157.38,
300273,Cherpuk Group,Russia,Kamchatka and Mainland Asia,Kamchatka Peninsula,55.5499999999999,157.47,
300280,Ichinsky,Russia,Kamchatka and Mainland Asia,Kamchatka Peninsula,55.68,157.729999999999,
300290,Maly Payalpan,Russia,Kamchatka and Mainland Asia,Kamchatka Peninsula,55.82,157.979999999999,
300300,Bolshoi Payalpan,Russia,Kamchatka and Mainland Asia,Kamchatka Peninsula,55.88,157.78,
300310,Plosky,Russia,Kamchatka and Mainland Asia,Kamchatka Peninsula,55.2,158.47,
300320,Akhtang,Russia,Kamchatka and Mainland Asia,Kamchatka Peninsula,55.43,158.65,
300330,Kozyrevsky,Russia,Kamchatka and Mainland Asia,Kamchatka Peninsula,55.57999999999989,158.38,
300340,Romanovka,Russia,Kamchatka and Mainland Asia,Kamchatka Peninsula,55.64999999999989,158.8,
300350,Uksichan,Russia,Kamchatka and Mainland Asia,Kamchatka Peninsula,56.07999999999989,158.38,
300360,Bolshoi-Kekuknaysky,Russia,Kamchatka and Mainland Asia,Kamchatka Peninsula,56.46999999999989,157.8,
300370,Kulkev,Russia,Kamchatka and Mainland Asia,Kamchatka Peninsula,56.3699999999999,158.37,
300380,Geodesistoy,Russia,Kamchatka and Mainland Asia,Kamchatka Peninsula,56.32999999999989,158.66999999999902,
300390,Anaun,Russia,Kamchatka and Mainland Asia,Kamchatka Peninsula,56.32,158.83,
300400,Krainy,Russia,Kamchatka and Mainland Asia,Kamchatka Peninsula,56.3699999999999,159.03,
300410,Kekurny,Russia,Kamchatka and Mainland Asia,Kamchatka Peninsula,56.39999999999989,158.849999999999,
300420,Eggella,Russia,Kamchatka and Mainland Asia,Kamchatka Peninsula,56.57,158.52,
300430,Unnamed,Russia,Kamchatka and Mainland Asia,Kamchatka Peninsula,56.82,158.94999999999902,
300440,Verkhovoy,Russia,Kamchatka and Mainland Asia,Kamchatka Peninsula,56.52,159.53,
300450,Alney-Chashakondzha,Russia,Kamchatka and Mainland Asia,Kamchatka Peninsula,56.7,159.65,
300460,Cherny,Russia,Kamchatka and Mainland Asia,Kamchatka Peninsula,56.82,159.66999999999902,
300470,Pogranychny,Russia,Kamchatka and Mainland Asia,Kamchatka Peninsula,56.85,159.8,
300480,Zaozerny,Russia,Kamchatka and Mainland Asia,Kamchatka Peninsula,56.88,159.94999999999902,
300490,Bliznets,Russia,Kamchatka and Mainland Asia,Kamchatka Peninsula,56.96999999999989,159.78,
300500,Kebeney,Russia,Kamchatka and Mainland Asia,Kamchatka Peninsula,57.1,159.93,
300510,Fedotych,Russia,Kamchatka and Mainland Asia,Kamchatka Peninsula,57.13,160.4,
300511,Shisheika,Russia,Kamchatka and Mainland Asia,Kamchatka Peninsula,57.14999999999989,161.08,
300512,Terpuk,Russia,Kamchatka and Mainland Asia,Kamchatka Peninsula,57.2,159.83,
300520,Sedankinsky,Russia,Kamchatka and Mainland Asia,Kamchatka Peninsula,57.27,160.08,
300530,Leutongey,Russia,Kamchatka and Mainland Asia,Kamchatka Peninsula,57.2999999999999,159.83,
300540,Tuzovsky,Russia,Kamchatka and Mainland Asia,Kamchatka Peninsula,57.32,159.97,
300550,Gorny Institute,Russia,Kamchatka and Mainland Asia,Kamchatka Peninsula,57.32999999999989,160.19999999999902,
300551,Kinenin,Russia,Kamchatka and Mainland Asia,Kamchatka Peninsula,57.35,160.97,
300552,Bliznetsy,Russia,Kamchatka and Mainland Asia,Kamchatka Peninsula,57.35,161.37,
300560,Titila,Russia,Kamchatka and Mainland Asia,Kamchatka Peninsula,57.39999999999989,160.099999999999,
300570,Mezhdusopochny,Russia,Kamchatka and Mainland Asia,Kamchatka Peninsula,57.46999999999989,160.25,
300580,Shishel,Russia,Kamchatka and Mainland Asia,Kamchatka Peninsula,57.45,160.37,
300590,Elovsky,Russia,Kamchatka and Mainland Asia,Kamchatka Peninsula,57.5499999999999,160.53,
300600,Alngey,Russia,Kamchatka and Mainland Asia,Kamchatka Peninsula,57.7,160.4,
300610,Uka,Russia,Kamchatka and Mainland Asia,Kamchatka Peninsula,57.7,160.58,
300620,Kaileney,Russia,Kamchatka and Mainland Asia,Kamchatka Peninsula,57.7999999999999,160.66999999999902,
300630,Plosky,Russia,Kamchatka and Mainland Asia,Kamchatka Peninsula,57.82999999999989,160.25,
300640,Bely,Russia,Kamchatka and Mainland Asia,Kamchatka Peninsula,57.88,160.53,
300650,Nylgimelkin,Russia,Kamchatka and Mainland Asia,Kamchatka Peninsula,57.96999999999989,160.65,
300660,Snezhniy,Russia,Kamchatka and Mainland Asia,Kamchatka Peninsula,58.02,160.8,
300670,Iktunup,Russia,Kamchatka and Mainland Asia,Kamchatka Peninsula,58.07999999999989,160.77,
300671,Spokoiny,Russia,Kamchatka and Mainland Asia,Kamchatka Peninsula,58.13,160.819999999999,
300680,Ostry,Russia,Kamchatka and Mainland Asia,Kamchatka Peninsula,58.18,160.819999999999,
300690,Snegovoy,Russia,Kamchatka and Mainland Asia,Kamchatka Peninsula,58.2,160.97,
300700,Severny,Russia,Kamchatka and Mainland Asia,Kamchatka Peninsula,58.28,160.87,
300710,Iettunup,Russia,Kamchatka and Mainland Asia,Kamchatka Peninsula,58.39999999999989,161.08,
300720,Voyampolsky,Russia,Kamchatka and Mainland Asia,Kamchatka Peninsula,58.3699999999999,160.62,
302010,Sikhote-Alin,Russia,Kamchatka and Mainland Asia,Russia (southeastern),47.0,137.5,
302030,Udokan Plateau,Russia,Kamchatka and Mainland Asia,Russia (southeastern),56.28,117.77,
302040,Vitim Plateau,Russia,Kamchatka and Mainland Asia,Russia (southeastern),53.7,113.3,
302050,Tunkin Depression,Russia,Kamchatka and Mainland Asia,Russia (southeastern),51.5,102.5,
302060,Oka Plateau,Russia,Kamchatka and Mainland Asia,Russia (southeastern),52.7,98.98,
302070,Azas Plateau,Russia,Kamchatka and Mainland Asia,Russia (southeastern),52.52,98.59999999999991,
303010,Taryatu-Chulutu,Mongolia,Kamchatka and Mainland Asia,Mongolia,48.17,99.7,
303020,Khanuy Gol,Mongolia,Kamchatka and Mainland Asia,Mongolia,48.67,102.75,
303030,Bus-Obo,Mongolia,Kamchatka and Mainland Asia,Mongolia,47.1199999999999,109.08,
303040,Dariganga Volcanic Field,Mongolia,Kamchatka and Mainland Asia,Mongolia,45.32999999999989,114.0,
303050,Middle Gobi,Mongolia,Kamchatka and Mainland Asia,Mongolia,45.28,106.7,
304010,Turfan,China,Kamchatka and Mainland Asia,China (western),42.899999999999906,89.25,
304020,Tianshan Volcanic Group,China,Kamchatka and Mainland Asia,China (western),42.5,82.5,
304030,Kunlun Volcanic Group,China,Kamchatka and Mainland Asia,China (western),35.52,80.2,
304040,Unnamed,China,Kamchatka and Mainland Asia,China (western),35.85,91.7,
305010,Honggeertu,China,Kamchatka and Mainland Asia,China (eastern),41.46999999999991,113.0,
305011,Arshan,China,Kamchatka and Mainland Asia,China (eastern),47.5,120.7,
305020,Keluo Group,China,Kamchatka and Mainland Asia,China (eastern),49.3699999999999,125.92,
305030,Wudalianchi,China,Kamchatka and Mainland Asia,China (eastern),48.71999999999989,126.12,
305040,Jingbo,China,Kamchatka and Mainland Asia,China (eastern),44.079999999999906,128.83,
305050,Longgang Group,China,Kamchatka and Mainland Asia,China (eastern),42.329999999999906,126.5,
305060,Changbaishan,China-North Korea,Kamchatka and Mainland Asia,China (eastern),41.979999999999905,128.08,
306010,Xianjindao,North Korea,Kamchatka and Mainland Asia,Korea,41.329999999999906,128.0,
306020,Ch'uga-ryong,North Korea-South Korea,Kamchatka and Mainland Asia,Korea,38.329999999999906,127.33,
306030,Ulreung,South Korea,Kamchatka and Mainland Asia,Korea,37.5,130.87,
306040,Halla,South Korea,Kamchatka and Mainland Asia,Korea,33.3699999999999,126.53,
311010,Buldir,United States,Alaska,Aleutian Islands,52.35,175.911,
311020,Kiska,United States,Alaska,Aleutian Islands,52.103,177.602,1.0
311030,Segula,United States,Alaska,Aleutian Islands,52.015,178.136,
311040,Davidof,United States,Alaska,Aleutian Islands,51.96999999999989,178.33,
311050,Little Sitkin,United States,Alaska,Aleutian Islands,51.95,178.543,
311060,Semisopochnoi,United States,Alaska,Aleutian Islands,51.93,179.58,
311070,Gareloi,United States,Alaska,Aleutian Islands,51.78999999999989,-178.794,1.0
311080,Tanaga,United States,Alaska,Aleutian Islands,51.8849999999999,-178.14599999999902,
311090,Takawangha,United States,Alaska,Aleutian Islands,51.8729999999999,-178.006,
311100,Bobrof,United States,Alaska,Aleutian Islands,51.9099999999999,-177.43799999999902,
311110,Kanaga,United States,Alaska,Aleutian Islands,51.923,-177.168,1.0
311111,Moffett,United States,Alaska,Aleutian Islands,51.944,-176.747,
311120,Great Sitkin,United States,Alaska,Aleutian Islands,52.076,-176.13,1.0
311130,Kasatochi,United States,Alaska,Aleutian Islands,52.177,-175.508,
311140,Koniuji,United States,Alaska,Aleutian Islands,52.21999999999989,-175.13,
311150,Sergief,United States,Alaska,Aleutian Islands,52.0499999999999,-174.94999999999902,
311160,Atka,United States,Alaska,Aleutian Islands,52.332,-174.137,
311161,Korovin,United States,Alaska,Aleutian Islands,52.381,-174.154,1.0
311180,Seguam,United States,Alaska,Aleutian Islands,52.3149999999999,-172.509999999999,2.0
311190,Amukta,United States,Alaska,Aleutian Islands,52.5,-171.252,1.0
311200,Chagulak,United States,Alaska,Aleutian Islands,52.57699999999989,-171.13,
311210,Yunaska,United States,Alaska,Aleutian Islands,52.643,-170.628999999999,
311220,Herbert,United States,Alaska,Aleutian Islands,52.7419999999999,-170.110999999999,
311230,Carlisle,United States,Alaska,Aleutian Islands,52.89399999999989,-170.054,
311240,Cleveland,United States,Alaska,Aleutian Islands,52.825,-169.94399999999902,2.0
311241,Tana,United States,Alaska,Aleutian Islands,52.82999999999989,-169.77,
311250,Uliaga,United States,Alaska,Aleutian Islands,53.0649999999999,-169.77,
311260,Kagamil,United States,Alaska,Aleutian Islands,52.9739999999999,-169.72,
311270,Vsevidof,United States,Alaska,Aleutian Islands,53.13,-168.693,
311280,Recheschnoi,United States,Alaska,Aleutian Islands,53.1569999999999,-168.53899999999902,
311290,Okmok,United States,Alaska,Aleutian Islands,53.43,-168.13,2.0
311300,Bogoslof,United States,Alaska,Aleutian Islands,53.93,-168.03,2.0
311310,Makushin,United States,Alaska,Aleutian Islands,53.89099999999989,-166.923,1.0
311320,Akutan,United States,Alaska,Aleutian Islands,54.134,-165.985999999999,2.0
311340,Westdahl,United States,Alaska,Aleutian Islands,54.518,-164.65,2.0
311350,Fisher,United States,Alaska,Aleutian Islands,54.64999999999989,-164.43,3.0
311360,Shishaldin,United States,Alaska,Aleutian Islands,54.756,-163.97,2.0
311370,Isanotski,United States,Alaska,Aleutian Islands,54.765,-163.723,
311380,Roundtop,United States,Alaska,Aleutian Islands,54.7999999999999,-163.589,
311390,Amak,United States,Alaska,Aleutian Islands,55.42399999999989,-163.149,
312010,Frosty,United States,Alaska,Alaska Peninsula,55.082,-162.813999999999,
312011,Dutton,United States,Alaska,Alaska Peninsula,55.16799999999989,-162.271999999999,
312020,Emmons Lake,United States,Alaska,Alaska Peninsula,55.341,-162.079,
312030,Pavlof,United States,Alaska,Alaska Peninsula,55.42,-161.887,2.0
312040,Pavlof Sister,United States,Alaska,Alaska Peninsula,55.453,-161.842999999999,
312050,Dana,United States,Alaska,Alaska Peninsula,55.64099999999989,-161.214,
312051,Stepovak Bay 2,United States,Alaska,Alaska Peninsula,55.9129999999999,-160.041,
312052,Stepovak Bay 3,United States,Alaska,Alaska Peninsula,55.929,-160.002,
312053,Stepovak Bay 4,United States,Alaska,Alaska Peninsula,55.954,-159.954,
312060,Kupreanof,United States,Alaska,Alaska Peninsula,56.011,-159.797,
312070,Veniaminof,United States,Alaska,Alaska Peninsula,56.17,-159.38,2.0
312080,Black Peak,United States,Alaska,Alaska Peninsula,56.552,-158.785,
312090,Aniakchak,United States,Alaska,Alaska Peninsula,56.88,-158.16999999999902,
312100,Yantarni,United States,Alaska,Alaska Peninsula,57.01899999999989,-157.185,
312110,Chiginagak,United States,Alaska,Alaska Peninsula,57.1349999999999,-156.99,
312120,Kialagvik,United States,Alaska,Alaska Peninsula,57.203,-156.745,
312130,Ugashik-Peulik,United States,Alaska,Alaska Peninsula,57.7509999999999,-156.367999999999,
312131,Ukinrek Maars,United States,Alaska,Alaska Peninsula,57.832,-156.509999999999,
312132,Unnamed,United States,Alaska,Alaska Peninsula,57.8699999999999,-155.41999999999902,
312140,Martin,United States,Alaska,Alaska Peninsula,58.1719999999999,-155.360999999999,
312150,Mageik,United States,Alaska,Alaska Peninsula,58.195,-155.25299999999902,
312160,Trident,United States,Alaska,Alaska Peninsula,58.2359999999999,-155.099999999999,2.0
312170,Katmai,United States,Alaska,Alaska Peninsula,58.28,-154.962999999999,
312180,Novarupta,United States,Alaska,Alaska Peninsula,58.27,-155.157,
312190,Griggs,United States,Alaska,Alaska Peninsula,58.35399999999989,-155.092,
312200,Snowy Mountain,United States,Alaska,Alaska Peninsula,58.33599999999989,-154.68199999999902,
312210,Denison,United States,Alaska,Alaska Peninsula,58.41799999999989,-154.449,
312220,Steller,United States,Alaska,Alaska Peninsula,58.43,-154.4,
312230,Kukak,United States,Alaska,Alaska Peninsula,58.453,-154.354999999999,
312250,Kaguyak,United States,Alaska,Alaska Peninsula,58.6079999999999,-154.027999999999,
312260,Fourpeaked,United States,Alaska,Alaska Peninsula,58.77,-153.672,
312270,Douglas,United States,Alaska,Alaska Peninsula,58.8549999999999,-153.542,
313010,Augustine,United States,Alaska,Alaska (southwestern),59.363,-153.43,3.0
313020,Iliamna,United States,Alaska,Alaska (southwestern),60.0319999999999,-153.09,3.0
313030,Redoubt,United States,Alaska,Alaska (southwestern),60.48499999999989,-152.741999999999,3.0
313040,Spurr,United States,Alaska,Alaska (southwestern),61.29899999999989,-152.251,
313050,Hayes,United States,Alaska,Alaska (southwestern),61.64,-152.411,
314010,St. Paul Island,United States,Alaska,Alaska (western),57.18,-170.3,
314020,Nunivak Island,United States,Alaska,Alaska (western),60.02,-166.33,
314030,Ingakslugwat Hills,United States,Alaska,Alaska (western),61.43,-164.47,
314040,St. Michael,United States,Alaska,Alaska (western),63.45,-162.12,
314050,Kookooligit Mountains,United States,Alaska,Alaska (western),63.6,-170.43,
314060,Imuruk Lake,United States,Alaska,Alaska (western),65.5999999999999,-163.91999999999902,
315001,Buzzard Creek,United States,Alaska,Alaska (eastern),64.0699999999999,-148.41999999999902,
315010,Sanford,United States,Alaska,Alaska (eastern),62.21999999999989,-144.13,
315020,Wrangell,United States,Alaska,Alaska (eastern),62.0,-144.02,1.0
315021,Gordon,United States,Alaska,Alaska (eastern),62.13,-143.08,
315030,Churchill,United States,Alaska,Alaska (eastern),61.38,-141.75,
315040,Edgecumbe,United States,Alaska,Alaska (eastern),57.0499999999999,-135.75,
315050,Duncan Canal,United States,Alaska,Alaska (eastern),56.5,-133.099999999999,
315060,Tlevak Strait-Suemez Is.,United States,Alaska,Alaska (eastern),55.25,-133.3,
315070,Behm Canal-Rudyerd Bay,United States,Alaska,Alaska (eastern),55.32,-131.05,
320010,Fort Selkirk,Canada,Canada and Western USA,Canada,62.93,-137.38,
320020,Alligator Lake,Canada,Canada and Western USA,Canada,60.42,-135.41999999999902,
320030,Atlin Volcanic Field,Canada,Canada and Western USA,Canada,59.68,-133.319999999999,
320031,Tuya Volcanic Field,Canada,Canada and Western USA,Canada,59.3699999999999,-130.58,
320040,Heart Peaks,Canada,Canada and Western USA,Canada,58.6,-131.97,
320050,Level Mountain,Canada,Canada and Western USA,Canada,58.42,-131.349999999999,
320060,Edziza,Canada,Canada and Western USA,Canada,57.71999999999989,-130.63,
320070,Spectrum Range,Canada,Canada and Western USA,Canada,57.43,-130.68,
320080,Hoodoo Mountain,Canada,Canada and Western USA,Canada,56.78,-131.28,
320090,Iskut-Unuk River Cones,Canada,Canada and Western USA,Canada,56.57999999999989,-130.55,
320100,Tseax River Cone,Canada,Canada and Western USA,Canada,55.1199999999999,-128.9,
320110,Crow Lagoon,Canada,Canada and Western USA,Canada,54.7,-130.229999999999,
320120,Milbanke Sound Group,Canada,Canada and Western USA,Canada,52.5,-128.729999999999,
320130,Satah Mountain,Canada,Canada and Western USA,Canada,52.46999999999989,-124.7,
320140,Nazko,Canada,Canada and Western USA,Canada,52.89999999999989,-123.73,
320150,Wells Gray-Clearwater,Canada,Canada and Western USA,Canada,52.32999999999989,-120.56999999999901,
320160,Silverthrone,Canada,Canada and Western USA,Canada,51.43,-126.3,
320170,Bridge River Cones,Canada,Canada and Western USA,Canada,50.7999999999999,-123.4,
320180,Meager,Canada,Canada and Western USA,Canada,50.63,-123.5,
320190,Garibaldi Lake,Canada,Canada and Western USA,Canada,49.92,-123.03,
320200,Garibaldi,Canada,Canada and Western USA,Canada,49.85,-123.0,
320811,Cayley Volcanic Field,Canada,Canada and Western USA,Canada,50.1199999999999,-123.28,
321010,Baker,United States,Canada and Western USA,USA (Washington),48.777,-121.813,2.0
321020,Glacier Peak,United States,Canada and Western USA,USA (Washington),48.112,-121.113,
321030,Rainier,United States,Canada and Western USA,USA (Washington),46.853,-121.76,3.0
321040,Adams,United States,Canada and Western USA,USA (Washington),46.206,-121.48999999999901,1.0
321050,St. Helens,United States,Canada and Western USA,USA (Washington),46.2,-122.18,3.0
321060,West Crater,United States,Canada and Western USA,USA (Washington),45.88,-122.08,
321070,Indian Heaven,United States,Canada and Western USA,USA (Washington),45.93,-121.81999999999901,
322010,Hood,United States,Canada and Western USA,USA (Oregon),45.374,-121.69499999999901,
322020,Jefferson,United States,Canada and Western USA,USA (Oregon),44.67399999999991,-121.8,
322030,Blue Lake Crater,United States,Canada and Western USA,USA (Oregon),44.411,-121.774,
322040,Sand Mountain Field,United States,Canada and Western USA,USA (Oregon),44.38,-121.93,1.0
322060,Belknap,United States,Canada and Western USA,USA (Oregon),44.284999999999904,-121.84099999999901,
322070,North Sister Field,United States,Canada and Western USA,USA (Oregon),44.17,-121.77,1.0
322090,Bachelor,United States,Canada and Western USA,USA (Oregon),43.97899999999991,-121.688,
322100,Davis Lake,United States,Canada and Western USA,USA (Oregon),43.57,-121.81999999999901,
322110,Newberry,United States,Canada and Western USA,USA (Oregon),43.722,-121.229,1.0
322120,Devils Garden,United States,Canada and Western USA,USA (Oregon),43.512,-120.861,
322150,Cinnamon Butte,United States,Canada and Western USA,USA (Oregon),43.241,-122.108,
322160,Crater Lake,United States,Canada and Western USA,USA (Oregon),42.93,-122.12,
322170,Diamond Craters,United States,Canada and Western USA,USA (Oregon),43.1,-118.75,
322190,Jordan Craters,United States,Canada and Western USA,USA (Oregon),43.146999999999906,-117.45999999999901,
323010,Shasta,United States,Canada and Western USA,USA (California),41.40899999999991,-122.193,3.0
323020,Medicine Lake,United States,Canada and Western USA,USA (California),41.610999999999905,-121.554,1.0
323050,Silver Lake,United States,Canada and Western USA,USA (California),40.731,-121.84099999999901,
323080,Lassen Volcanic Center,United States,Canada and Western USA,USA (California),40.491999999999905,-121.508,
323100,Clear Lake,United States,Canada and Western USA,USA (California),38.96999999999991,-122.77,
323110,Mono Lake Volcanic Field,United States,Canada and Western USA,USA (California),38.0,-119.03,
323120,Mono Craters,United States,Canada and Western USA,USA (California),37.88,-119.0,
323130,Inyo Craters,United States,Canada and Western USA,USA (California),37.692,-119.02,
323150,Mammoth Mountain,United States,Canada and Western USA,USA (California),37.631,-119.032,
323160,Ubehebe Craters,United States,Canada and Western USA,USA (California),37.02,-117.45,
323170,Golden Trout Creek,United States,Canada and Western USA,USA (California),36.357999999999905,-118.31999999999901,
323180,Coso Volcanic Field,United States,Canada and Western USA,USA (California),36.03,-117.81999999999901,
323190,Lavic Lake,United States,Canada and Western USA,USA (California),34.75,-116.625,
323200,Salton Buttes,United States,Canada and Western USA,USA (California),33.2,-115.62,
324010,Shoshone Lava Field,United States,Canada and Western USA,USA (Idaho),43.18,-114.34999999999901,
324020,Craters of the Moon,United States,Canada and Western USA,USA (Idaho),43.42,-113.5,1.0
324030,Wapi Lava Field,United States,Canada and Western USA,USA (Idaho),42.88,-113.22,
324040,Hell's Half Acre,United States,Canada and Western USA,USA (Idaho),43.5,-112.45,
325010,Yellowstone,United States,Canada and Western USA,USA (Wyoming),44.43,-110.67,
326010,Soda Lakes,United States,Canada and Western USA,USA (Nevada),39.53,-118.87,
327040,Markagunt Plateau,United States,Canada and Western USA,USA (Utah),37.579999999999906,-112.67,
327050,Black Rock Desert,United States,Canada and Western USA,USA (Utah),38.96999999999991,-112.5,
327110,Carrizozo,United States,Canada and Western USA,USA (New Mexico),33.78,-105.93,
327120,Zuni-Bandera,United States,Canada and Western USA,USA (New Mexico),34.7999999999999,-108.0,
328010,Dotsero,United States,Canada and Western USA,USA (Colorado),39.661,-107.035,
329010,Uinkaret Field,United States,Canada and Western USA,USA (Arizona),36.38,-113.13,
329020,Sunset Crater,United States,Canada and Western USA,USA (Arizona),35.3699999999999,-111.5,
331010,Endeavour Ridge,Undersea Features,Hawaii and Pacific Ocean,Pacific Ocean (northern),47.95,-129.099999999999,
331011,Cobb Segment,Undersea Features,Hawaii and Pacific Ocean,Pacific Ocean (northern),46.88,-129.33,
331020,CoAxial Segment,Undersea Features,Hawaii and Pacific Ocean,Pacific Ocean (northern),46.52,-129.58,
331021,Axial Seamount,Undersea Features,Hawaii and Pacific Ocean,Pacific Ocean (northern),45.95,-130.0,
331030,Cleft Segment,Undersea Features,Hawaii and Pacific Ocean,Pacific Ocean (northern),44.829999999999906,-130.3,
331031,North Gorda Ridge,United States,Hawaii and Pacific Ocean,Pacific Ocean (northern),42.67,-126.78,
331040,Escanaba Segment,United States,Hawaii and Pacific Ocean,Pacific Ocean (northern),40.979999999999905,-127.5,
331050,Unnamed,United States,Hawaii and Pacific Ocean,Pacific Ocean (northern),31.75,-124.25,
332000,Loihi,United States,Hawaii and Pacific Ocean,Hawaiian Islands,18.92,-155.27,
332010,Kilauea,United States,Hawaii and Pacific Ocean,Hawaiian Islands,19.420999999999896,-155.287,1.0
332020,Mauna Loa,United States,Hawaii and Pacific Ocean,Hawaiian Islands,19.475,-155.608,1.0
332030,Mauna Kea,United States,Hawaii and Pacific Ocean,Hawaiian Islands,19.82,-155.47,
332040,Hualalai,United States,Hawaii and Pacific Ocean,Hawaiian Islands,19.692,-155.87,1.0
332060,Haleakala,United States,Hawaii and Pacific Ocean,Hawaiian Islands,20.7079999999999,-156.25,
332080,Unnamed,United States,Hawaii and Pacific Ocean,Hawaiian Islands,21.75,-158.75,
332090,Unnamed,United States,Hawaii and Pacific Ocean,Hawaiian Islands,23.5799999999999,-163.83,
333010,Teahitia,France,Hawaii and Pacific Ocean,Pacific Ocean (central),-17.57,-148.849999999999,1.0
333020,Rocard,France,Hawaii and Pacific Ocean,Pacific Ocean (central),-17.641999999999896,-148.599999999999,
333030,Moua Pihaa,France,Hawaii and Pacific Ocean,Pacific Ocean (central),-18.32,-148.66999999999902,
333040,Mehetia,France,Hawaii and Pacific Ocean,Pacific Ocean (central),-17.87,-148.069999999999,
333050,Adams Seamount,Undersea Features,Hawaii and Pacific Ocean,Pacific Ocean (central),-25.37,-129.27,1.0
333060,Macdonald,Undersea Features,Hawaii and Pacific Ocean,Pacific Ocean (central),-28.98,-140.25,1.0
334020,Northern EPR-Segment RO2,Undersea Features,Hawaii and Pacific Ocean,Pacific Ocean (eastern),16.55,-105.31999999999901,
334021,Northern EPR-Segment RO3,Undersea Features,Hawaii and Pacific Ocean,Pacific Ocean (eastern),15.83,-105.43,
334040,Unnamed,Undersea Features,Hawaii and Pacific Ocean,Pacific Ocean (eastern),10.73,-103.58,
334050,Unnamed,Undersea Features,Hawaii and Pacific Ocean,Pacific Ocean (eastern),9.83,-104.3,1.0
334070,Gal?pagos Rift,Undersea Features,Hawaii and Pacific Ocean,Pacific Ocean (eastern),0.792,-86.15,
334100,Unnamed,Undersea Features,Hawaii and Pacific Ocean,Pacific Ocean (eastern),-8.27,-107.95,
334120,Southern EPR-Segment K,Undersea Features,Hawaii and Pacific Ocean,Pacific Ocean (eastern),-17.436,-113.206,1.0
334130,Southern EPR-Segment J,Undersea Features,Hawaii and Pacific Ocean,Pacific Ocean (eastern),-18.175,-113.34999999999901,
334140,Southern EPR-Segment I,Undersea Features,Hawaii and Pacific Ocean,Pacific Ocean (eastern),-18.53,-113.42,
335010,Antipodes Island,New Zealand,Hawaii and Pacific Ocean,Pacific Ocean (southern),-49.68,178.77,
335020,Unnamed,Undersea Features,Hawaii and Pacific Ocean,Pacific Ocean (southern),-53.89999999999989,-140.3,
335030,Unnamed,Undersea Features,Hawaii and Pacific Ocean,Pacific Ocean (southern),-55.96999999999989,-143.16999999999902,
341000,"Prieto, Cerro",Mexico,M?xico and Central America,M?xico,32.4179999999999,-115.305,
341001,Pinacate,Mexico,M?xico and Central America,M?xico,31.7719999999999,-113.498,
341002,San Quint?n Volcanic Field,Mexico,M?xico and Central America,M?xico,30.468,-115.996,
341003,"San Luis, Isla",Mexico,M?xico and Central America,M?xico,29.9699999999999,-114.4,
341004,Jaraguay Volcanic Field,Mexico,M?xico and Central America,M?xico,29.3299999999999,-114.5,
341005,Coronado,Mexico,M?xico and Central America,M?xico,29.0799999999999,-113.513,
341006,Guadalupe,Mexico,M?xico and Central America,M?xico,29.07,-118.28,
341007,San Borja Volcanic Field,Mexico,M?xico and Central America,M?xico,28.5,-113.75,
341008,Unnamed,Mexico,M?xico and Central America,M?xico,28.0,-115.0,
341010,Tres V?rgenes,Mexico,M?xico and Central America,M?xico,27.4699999999999,-112.59099999999901,
341011,"Tortuga, Isla",Mexico,M?xico and Central America,M?xico,27.43,-111.88,
341012,Comond?-La Pur?sima,Mexico,M?xico and Central America,M?xico,26.0,-111.92,
341020,B?rcena,Mexico,M?xico and Central America,M?xico,19.3,-110.81999999999901,
341021,Socorro,Mexico,M?xico and Central America,M?xico,18.78,-110.95,
341022,Durango Volcanic Field,Mexico,M?xico and Central America,M?xico,24.1499999999999,-104.45,
341023,"Isabel, Isla",Mexico,M?xico and Central America,M?xico,21.8479999999999,-105.886,
341024,Sangang?ey,Mexico,M?xico and Central America,M?xico,21.449999999999896,-104.73,
341030,Ceboruco,Mexico,M?xico and Central America,M?xico,21.125,-104.508,
341031,Mascota Volcanic Field,Mexico,M?xico and Central America,M?xico,20.62,-104.83,
341040,Colima,Mexico,M?xico and Central America,M?xico,19.513999999999896,-103.62,3.0
341060,Michoac?n-Guanajuato,Mexico,M?xico and Central America,M?xico,19.85,-101.75,
341061,Zit?cuaro-Valle de Bravo,Mexico,M?xico and Central America,M?xico,19.3999999999999,-100.25,
341062,Jocotitl?n,Mexico,M?xico and Central America,M?xico,19.73,-99.75799999999991,
341070,"Toluca, Nevado de",Mexico,M?xico and Central America,M?xico,19.108,-99.75799999999991,
341080,Chichinautzin,Mexico,M?xico and Central America,M?xico,19.0799999999999,-99.12999999999991,2.0
341081,Papayo,Mexico,M?xico and Central America,M?xico,19.308,-98.7,
341082,Iztacc?huatl,Mexico,M?xico and Central America,M?xico,19.1789999999999,-98.64199999999991,
341090,Popocat?petl,Mexico,M?xico and Central America,M?xico,19.023,-98.622,2.0
341091,"Malinche, La",Mexico,M?xico and Central America,M?xico,19.231,-98.03199999999991,
341092,Serd?n-Oriental,Mexico,M?xico and Central America,M?xico,19.27,-97.4699999999999,
341093,"Humeros, Los",Mexico,M?xico and Central America,M?xico,19.68,-97.45,
341094,"Atlixcos, Los",Mexico,M?xico and Central America,M?xico,19.809,-96.52599999999991,
341095,Naolinco Volcanic Field,Mexico,M?xico and Central America,M?xico,19.67,-96.75,
341096,Cofre de Perote,Mexico,M?xico and Central America,M?xico,19.492,-97.15,
341097,"Gloria, La",Mexico,M?xico and Central America,M?xico,19.3299999999999,-97.25,
341098,"Cumbres,  Las",Mexico,M?xico and Central America,M?xico,19.1499999999999,-97.26999999999991,
341100,"Orizaba, Pico de",Mexico,M?xico and Central America,M?xico,19.03,-97.268,3.0
341110,San Mart?n,Mexico,M?xico and Central America,M?xico,18.57,-95.2,
341120,"Chich?n, El",Mexico,M?xico and Central America,M?xico,17.3599999999999,-93.22799999999991,
341130,Tacan?,Mexico-Guatemala,M?xico and Central America,M?xico,15.13,-92.11199999999991,
342020,Tajumulco,Guatemala,M?xico and Central America,Guatemala,15.034,-91.903,
342030,Santa Mar?a,Guatemala,M?xico and Central America,Guatemala,14.756,-91.552,3.0
342040,Almolonga,Guatemala,M?xico and Central America,Guatemala,14.82,-91.48,
342060,Atitl?n,Guatemala,M?xico and Central America,Guatemala,14.583,-91.186,2.0
342070,Tolim?n,Guatemala,M?xico and Central America,Guatemala,14.612,-91.18899999999991,
342080,Acatenango,Guatemala,M?xico and Central America,Guatemala,14.5009999999999,-90.876,
342090,Fuego,Guatemala,M?xico and Central America,Guatemala,14.473,-90.87999999999991,3.0
342100,Agua,Guatemala,M?xico and Central America,Guatemala,14.465,-90.74299999999991,
342110,Pacaya,Guatemala,M?xico and Central America,Guatemala,14.381,-90.6009999999999,3.0
342111,Cuilapa-Barbarena,Guatemala,M?xico and Central America,Guatemala,14.33,-90.4,
342120,Tecuamburro,Guatemala,M?xico and Central America,Guatemala,14.156,-90.40699999999991,
342121,Jumaytepeque,Guatemala,M?xico and Central America,Guatemala,14.336,-90.269,
342130,Moyuta,Guatemala,M?xico and Central America,Guatemala,14.0299999999999,-90.09999999999991,
342140,Flores,Guatemala,M?xico and Central America,Guatemala,14.308,-89.992,
342141,Tahual,Guatemala,M?xico and Central America,Guatemala,14.43,-89.9,
342150,"Santiago, Cerro",Guatemala,M?xico and Central America,Guatemala,14.33,-89.87,
342160,Suchit?n,Guatemala,M?xico and Central America,Guatemala,14.4,-89.78,
342170,Chingo,Guatemala-El Salvador,M?xico and Central America,Guatemala,14.1199999999999,-89.73,
342180,Ixtepeque,Guatemala,M?xico and Central America,Guatemala,14.42,-89.68,
342190,Ipala,Guatemala,M?xico and Central America,Guatemala,14.55,-89.62999999999991,
342200,Chiquimula Volcanic Field,Guatemala,M?xico and Central America,Guatemala,14.83,-89.5499999999999,
342210,Quezaltepeque,Guatemala,M?xico and Central America,Guatemala,14.57,-89.45,
343001,San Diego,El Salvador-Guatemala,M?xico and Central America,El Salvador and Honduras,14.27,-89.48,
343002,"Sing?il, Cerro",El Salvador,M?xico and Central America,El Salvador and Honduras,14.05,-89.65,
343010,Apaneca Range,El Salvador,M?xico and Central America,El Salvador and Honduras,13.891,-89.786,
343020,Santa Ana,El Salvador,M?xico and Central America,El Salvador and Honduras,13.853,-89.62999999999991,2.0
343030,Izalco,El Salvador,M?xico and Central America,El Salvador and Honduras,13.813,-89.63299999999991,1.0
343041,Coatepeque Caldera(s),El Salvador,M?xico and Central America,El Salvador and Honduras,13.8699999999999,-89.5499999999999,
343050,San Salvador,El Salvador,M?xico and Central America,El Salvador and Honduras,13.734,-89.29399999999991,
343051,"Cinotepeque, Cerro",El Salvador,M?xico and Central America,El Salvador and Honduras,14.02,-89.25,
343052,Guazapa,El Salvador,M?xico and Central America,El Salvador and Honduras,13.9,-89.12,
343060,Ilopango,El Salvador,M?xico and Central America,El Salvador and Honduras,13.672,-89.0529999999999,
343070,San Vicente,El Salvador,M?xico and Central America,El Salvador and Honduras,13.595,-88.837,
343071,Apastepeque Field,El Salvador,M?xico and Central America,El Salvador and Honduras,13.72,-88.76999999999991,
343072,Taburete,El Salvador,M?xico and Central America,El Salvador and Honduras,13.435,-88.53199999999991,
343080,Tecapa,El Salvador,M?xico and Central America,El Salvador and Honduras,13.494,-88.50199999999991,
343081,Usulut?n,El Salvador,M?xico and Central America,El Salvador and Honduras,13.419,-88.471,
343082,"Tigre, El",El Salvador,M?xico and Central America,El Salvador and Honduras,13.47,-88.43,
343090,Chinameca,El Salvador,M?xico and Central America,El Salvador and Honduras,13.478,-88.3299999999999,
343100,San Miguel,El Salvador,M?xico and Central America,El Salvador and Honduras,13.4339999999999,-88.269,1.0
343101,"Aramuaca, Laguna",El Salvador,M?xico and Central America,El Salvador and Honduras,13.428,-88.105,
343110,Conchagua,El Salvador,M?xico and Central America,El Salvador and Honduras,13.275,-87.8449999999999,
343120,Conchag?ita,El Salvador,M?xico and Central America,El Salvador and Honduras,13.2289999999999,-87.76699999999991,
343130,"Tigre, Isla el",Honduras,M?xico and Central America,El Salvador and Honduras,13.272,-87.641,
343140,"Zacate Grande, Isla",Honduras,M?xico and Central America,El Salvador and Honduras,13.33,-87.62999999999991,
343150,"Yojoa, Lake",Honduras,M?xico and Central America,El Salvador and Honduras,14.98,-87.98,
343160,Utila Island,Honduras,M?xico and Central America,El Salvador and Honduras,16.1,-86.9,
344010,Cosig?ina,Nicaragua,M?xico and Central America,Nicaragua,12.98,-87.56999999999991,
344020,San Crist?bal,Nicaragua,M?xico and Central America,Nicaragua,12.702,-87.004,2.0
344040,Telica,Nicaragua,M?xico and Central America,Nicaragua,12.602,-86.8449999999999,2.0
344060,Rota,Nicaragua,M?xico and Central America,Nicaragua,12.55,-86.75,
344070,"Negro, Cerro",Nicaragua,M?xico and Central America,Nicaragua,12.506,-86.7019999999999,1.0
344080,"Pilas, Las",Nicaragua,M?xico and Central America,Nicaragua,12.4949999999999,-86.688,
344090,Momotombo,Nicaragua,M?xico and Central America,Nicaragua,12.422,-86.54,2.0
344091,Apoyeque,Nicaragua,M?xico and Central America,Nicaragua,12.242,-86.3419999999999,3.0
344092,Nejapa-Miraflores,Nicaragua,M?xico and Central America,Nicaragua,12.1199999999999,-86.31999999999991,
344100,Masaya,Nicaragua,M?xico and Central America,Nicaragua,11.984,-86.161,2.0
344101,Granada,Nicaragua,M?xico and Central America,Nicaragua,11.92,-85.98,
344110,Mombacho,Nicaragua,M?xico and Central America,Nicaragua,11.826,-85.968,
344111,Zapatera,Nicaragua,M?xico and Central America,Nicaragua,11.73,-85.81999999999991,
344120,Concepci?n,Nicaragua,M?xico and Central America,Nicaragua,11.538,-85.622,2.0
344130,Maderas,Nicaragua,M?xico and Central America,Nicaragua,11.446,-85.515,
344131,Estel?,Nicaragua,M?xico and Central America,Nicaragua,13.17,-86.4,
344132,"Ciguatepe, Cerro el",Nicaragua,M?xico and Central America,Nicaragua,12.5299999999999,-86.14199999999991,
344133,"Lajas, Las",Nicaragua,M?xico and Central America,Nicaragua,12.3,-85.73,
344140,"Azul, Volc?n",Nicaragua,M?xico and Central America,Nicaragua,12.5299999999999,-83.87,
345010,Oros?,Costa Rica,M?xico and Central America,Costa Rica,10.98,-85.4729999999999,
345020,Rinc?n de la Vieja,Costa Rica,M?xico and Central America,Costa Rica,10.83,-85.3239999999999,2.0
345030,Miravalles,Costa Rica,M?xico and Central America,Costa Rica,10.7479999999999,-85.153,
345031,Tenorio,Costa Rica,M?xico and Central America,Costa Rica,10.673,-85.015,
345033,Arenal,Costa Rica,M?xico and Central America,Costa Rica,10.4629999999999,-84.703,1.0
345034,Platanar,Costa Rica,M?xico and Central America,Costa Rica,10.3,-84.366,
345040,Po?s,Costa Rica,M?xico and Central America,Costa Rica,10.1999999999999,-84.233,1.0
345050,Barva,Costa Rica,M?xico and Central America,Costa Rica,10.135,-84.09999999999991,
345060,Iraz?,Costa Rica,M?xico and Central America,Costa Rica,9.97899999999999,-83.852,3.0
345070,Turrialba,Costa Rica,M?xico and Central America,Costa Rica,10.025,-83.76699999999991,3.0
346010,Bar?,Panama,M?xico and Central America,Panam?,8.808,-82.543,
346030,"Valle, El",Panama,M?xico and Central America,Panam?,8.58,-80.17,
351011,Romeral,Colombia,South America,Colombia,5.206,-75.364,
351012,"Bravo, Cerro",Colombia,South America,Colombia,5.092,-75.2999999999999,3.0
351020,"Ruiz, Nevado del",Colombia,South America,Colombia,4.895,-75.322,3.0
351021,Santa Isabel,Colombia,South America,Colombia,4.82,-75.37,
351030,"Tolima, Nevado del",Colombia,South America,Colombia,4.67,-75.3299999999999,2.0
351040,Mach?n,Colombia,South America,Colombia,4.48,-75.39199999999991,
351050,"Huila, Nevado del",Colombia,South America,Colombia,2.93,-76.03,
351060,Purac?,Colombia,South America,Colombia,2.32,-76.4,1.0
351061,Sotar?,Colombia,South America,Colombia,2.108,-76.5919999999999,
351062,Petacas,Colombia,South America,Colombia,1.57,-76.78,
351070,Do?a Juana,Colombia,South America,Colombia,1.47,-76.92,
351080,Galeras,Colombia,South America,Colombia,1.22,-77.37,3.0
351090,Azufral,Colombia,South America,Colombia,1.08,-77.68,
351100,Cumbal,Colombia,South America,Colombia,0.95,-77.87,
351110,"Negro de Mayasquer, Cerro",Colombia-Ecuador,South America,Colombia,0.828,-77.9639999999999,
352001,Soche,Ecuador,South America,Ecuador,0.552,-77.5799999999999,
352002,Chachimbiro,Ecuador,South America,Ecuador,0.468,-78.287,
352003,Cuicocha,Ecuador,South America,Ecuador,0.308,-78.364,
352004,Imbabura,Ecuador,South America,Ecuador,0.258,-78.183,
352005,Mojanda,Ecuador,South America,Ecuador,0.13,-78.26999999999991,
352006,Cayambe,Ecuador,South America,Ecuador,0.029,-77.986,3.0
352010,Reventador,Ecuador,South America,Ecuador,-0.077,-77.656,3.0
352011,Pululagua,Ecuador,South America,Ecuador,0.038,-78.46299999999991,
352020,Guagua Pichincha,Ecuador,South America,Ecuador,-0.171,-78.5979999999999,3.0
352021,Atacazo,Ecuador,South America,Ecuador,-0.353,-78.617,3.0
352022,Chacana,Ecuador,South America,Ecuador,-0.375,-78.25,
352030,Antisana,Ecuador,South America,Ecuador,-0.481,-78.141,
352031,Aliso,Ecuador,South America,Ecuador,-0.53,-78.0,
352040,Sumaco,Ecuador,South America,Ecuador,-0.538,-77.626,
352041,Illiniza,Ecuador,South America,Ecuador,-0.659,-78.7139999999999,
352050,Cotopaxi,Ecuador,South America,Ecuador,-0.677,-78.436,3.0
352060,Quilotoa,Ecuador,South America,Ecuador,-0.85,-78.9,
352071,Chimborazo,Ecuador,South America,Ecuador,-1.464,-78.8149999999999,
352080,Tungurahua,Ecuador,South America,Ecuador,-1.467,-78.44199999999991,3.0
352081,Licto,Ecuador,South America,Ecuador,-1.78,-78.613,
352090,Sangay,Ecuador,South America,Ecuador,-2.002,-78.34099999999991,3.0
353010,Fernandina,Ecuador,South America,Gal?pagos Islands,-0.37,-91.5499999999999,2.0
353011,Ecuador,Ecuador,South America,Gal?pagos Islands,-0.02,-91.546,
353020,Wolf,Ecuador,South America,Gal?pagos Islands,0.02,-91.34999999999991,1.0
353030,Darwin,Ecuador,South America,Gal?pagos Islands,-0.18,-91.28,
353040,Alcedo,Ecuador,South America,Gal?pagos Islands,-0.43,-91.12,
353050,"Negra, Sierra",Ecuador,South America,Gal?pagos Islands,-0.83,-91.17,1.0
353060,"Azul, Cerro",Ecuador,South America,Gal?pagos Islands,-0.92,-91.408,1.0
353070,Pinta,Ecuador,South America,Gal?pagos Islands,0.58,-90.75,
353080,Marchena,Ecuador,South America,Gal?pagos Islands,0.33,-90.4699999999999,
353081,Genovesa,Ecuador,South America,Gal?pagos Islands,0.32,-89.9579999999999,
353090,Santiago,Ecuador,South America,Gal?pagos Islands,-0.22,-90.76999999999991,
353091,Santa Cruz,Ecuador,South America,Gal?pagos Islands,-0.62,-90.3299999999999,
353120,San Crist?bal,Ecuador,South America,Gal?pagos Islands,-0.88,-89.5,
354000,Quimsachata,Peru,South America,Per?,-14.1999999999999,-71.3299999999999,
354001,"Auquihuato, Cerro",Peru,South America,Per?,-15.07,-73.18,
354002,Sara Sara,Peru,South America,Per?,-15.33,-73.45,
354003,Coropuna,Peru,South America,Per?,-15.52,-72.65,
354004,Andahua-Orcopampa,Peru,South America,Per?,-15.42,-72.3299999999999,
354005,Huambo,Peru,South America,Per?,-15.83,-72.12999999999991,
354006,Sabancaya,Peru,South America,Per?,-15.7799999999999,-71.84999999999991,2.0
354007,"Chachani, Nevado",Peru,South America,Per?,-16.1909999999999,-71.53,
354008,"Nicholson, Cerro",Peru,South America,Per?,-16.2579999999999,-71.753,
354010,"Misti, El",Peru,South America,Per?,-16.294,-71.409,1.0
354020,Ubinas,Peru,South America,Per?,-16.355,-70.903,2.0
354030,Huaynaputina,Peru,South America,Per?,-16.608,-70.84999999999991,
354031,Ticsani,Peru,South America,Per?,-16.7549999999999,-70.5949999999999,
354040,Tutupaca,Peru,South America,Per?,-17.0249999999999,-70.358,
354050,Yucamane,Peru,South America,Per?,-17.18,-70.2,2.0
354060,"Casiri, Nevados",Peru,South America,Per?,-17.4699999999999,-69.813,
355010,Tacora,Chile-Peru,South America,"Northern Chile, Bolivia & Argentina",-17.719999999999896,-69.7699999999999,
355011,Taapaca,Chile,South America,"Northern Chile, Bolivia & Argentina",-18.1,-69.5,
355012,Parinacota,Chile-Bolivia,South America,"Northern Chile, Bolivia & Argentina",-18.17,-69.15,
355020,Guallatiri,Chile,South America,"Northern Chile, Bolivia & Argentina",-18.42,-69.0919999999999,1.0
355021,Tambo Quemado,Bolivia,South America,"Northern Chile, Bolivia & Argentina",-18.62,-68.75,
355030,Isluga,Chile,South America,"Northern Chile, Bolivia & Argentina",-19.1499999999999,-68.8299999999999,1.0
355032,Tata Sabaya,Bolivia,South America,"Northern Chile, Bolivia & Argentina",-19.129999999999896,-68.53,
355035,"Jayu Khota, Laguna",Bolivia,South America,"Northern Chile, Bolivia & Argentina",-19.449999999999896,-67.42,
355036,Nuevo Mundo,Bolivia,South America,"Northern Chile, Bolivia & Argentina",-19.78,-66.48,
355040,Irruputuncu,Chile-Bolivia,South America,"Northern Chile, Bolivia & Argentina",-20.73,-68.5499999999999,
355042,Pampa Luxsar,Bolivia,South America,"Northern Chile, Bolivia & Argentina",-20.85,-68.2,
355050,Olca-Paruma,Chile-Bolivia,South America,"Northern Chile, Bolivia & Argentina",-20.93,-68.48,
355060,Ollag?e,Chile-Bolivia,South America,"Northern Chile, Bolivia & Argentina",-21.3,-68.18,
355061,"Azufre, Cerro del",Chile,South America,"Northern Chile, Bolivia & Argentina",-21.7869999999999,-68.2369999999999,
355070,San Pedro,Chile,South America,"Northern Chile, Bolivia & Argentina",-21.8799999999999,-68.4,1.0
355090,Putana,Chile,South America,"Northern Chile, Bolivia & Argentina",-22.55,-67.8499999999999,
355091,Sairecabur,Chile-Bolivia,South America,"Northern Chile, Bolivia & Argentina",-22.7199999999999,-67.8919999999999,
355092,Licancabur,Chile-Bolivia,South America,"Northern Chile, Bolivia & Argentina",-22.8299999999999,-67.8799999999999,
355093,Guayaques,Chile-Bolivia,South America,"Northern Chile, Bolivia & Argentina",-22.895,-67.566,
355094,Purico Large cone(s),Chile,South America,"Northern Chile, Bolivia & Argentina",-23.0,-67.75,
355095,Colachi,Chile,South America,"Northern Chile, Bolivia & Argentina",-23.236,-67.6449999999999,
355096,Acamarachi,Chile,South America,"Northern Chile, Bolivia & Argentina",-23.3,-67.62,
355097,"Overo, Cerro",Chile,South America,"Northern Chile, Bolivia & Argentina",-23.52,-67.67,
355098,Chiliques,Chile,South America,"Northern Chile, Bolivia & Argentina",-23.5799999999999,-67.7,
355100,L?scar,Chile,South America,"Northern Chile, Bolivia & Argentina",-23.37,-67.73,2.0
355101,Cord?n de Puntas Negras,Chile,South America,"Northern Chile, Bolivia & Argentina",-23.7429999999999,-67.534,
355102,Mi?iques,Chile,South America,"Northern Chile, Bolivia & Argentina",-23.82,-67.7699999999999,
355103,"Tujle, Cerro",Chile,South America,"Northern Chile, Bolivia & Argentina",-23.8299999999999,-67.95,
355104,Caichinque,Chile,South America,"Northern Chile, Bolivia & Argentina",-23.9499999999999,-67.73,
355105,Tilocalar,Chile,South America,"Northern Chile, Bolivia & Argentina",-23.9699999999999,-68.1299999999999,
355106,"Negrillar, El",Chile,South America,"Northern Chile, Bolivia & Argentina",-24.18,-68.25,
355107,Pular,Chile,South America,"Northern Chile, Bolivia & Argentina",-24.1879999999999,-68.054,
355108,"Negrillar, La",Chile,South America,"Northern Chile, Bolivia & Argentina",-24.28,-68.5999999999999,
355109,Socompa,Chile-Argentina,South America,"Northern Chile, Bolivia & Argentina",-24.3999999999999,-68.25,
355110,Llullaillaco,Chile-Argentina,South America,"Northern Chile, Bolivia & Argentina",-24.7199999999999,-68.53,
355112,"Escorial, Cerro",Chile-Argentina,South America,"Northern Chile, Bolivia & Argentina",-25.0799999999999,-68.37,
355120,Lastarria,Chile-Argentina,South America,"Northern Chile, Bolivia & Argentina",-25.17,-68.5,
355121,Cord?n del Azufre,Chile-Argentina,South America,"Northern Chile, Bolivia & Argentina",-25.3299999999999,-68.5199999999999,
355122,"Bayo, Cerro",Chile-Argentina,South America,"Northern Chile, Bolivia & Argentina",-25.42,-68.5799999999999,
355123,"Nevada, Sierra",Chile-Argentina,South America,"Northern Chile, Bolivia & Argentina",-26.48,-68.5799999999999,
355124,Falso Azufre,Chile-Argentina,South America,"Northern Chile, Bolivia & Argentina",-26.8,-68.37,
355125,"Incahuasi, Nevado de",Chile-Argentina,South America,"Northern Chile, Bolivia & Argentina",-27.042,-68.28,
355130,"Ojos del Salado, Nevados",Chile-Argentina,South America,"Northern Chile, Bolivia & Argentina",-27.12,-68.5499999999999,
355131,"Solo, El",Chile-Argentina,South America,"Northern Chile, Bolivia & Argentina",-27.108,-68.7199999999999,
355140,Copiap?,Chile,South America,"Northern Chile, Bolivia & Argentina",-27.3,-69.1299999999999,
355150,"Tuzgle, Cerro",Argentina,South America,"Northern Chile, Bolivia & Argentina",-24.05,-66.48,
355160,Aracar,Argentina,South America,"Northern Chile, Bolivia & Argentina",-24.25,-67.7699999999999,
355161,Unnamed,Argentina,South America,"Northern Chile, Bolivia & Argentina",-25.1,-68.2699999999999,
355180,Antofagasta de la Sierra,Argentina,South America,"Northern Chile, Bolivia & Argentina",-26.0799999999999,-67.5,
355190,"C?ndor, Cerro el",Argentina,South America,"Northern Chile, Bolivia & Argentina",-26.62,-68.3499999999999,
355200,Peinado,Argentina,South America,"Northern Chile, Bolivia & Argentina",-26.62,-68.15,
355210,Robledo,Argentina,South America,"Northern Chile, Bolivia & Argentina",-26.77,-67.7199999999999,
355220,Tipas,Argentina,South America,"Northern Chile, Bolivia & Argentina",-27.1999999999999,-68.5499999999999,
356010,San F?lix,Chile,South America,Pacific Ocean (Chilean Islands),-26.28,-80.12,
356011,Easter Island,Chile,South America,Pacific Ocean (Chilean Islands),-27.1499999999999,-109.38,
356020,Robinson Crusoe,Chile,South America,Pacific Ocean (Chilean Islands),-33.658,-78.84999999999991,
356040,Unnamed,Chile,South America,Pacific Ocean (Chilean Islands),-33.6199999999999,-76.8299999999999,
357010,Tupungatito,Chile-Argentina,South America,Central Chile and Argentina,-33.3999999999999,-69.7999999999999,1.0
357020,San Jos?,Chile-Argentina,South America,Central Chile and Argentina,-33.7819999999999,-69.897,1.0
357021,Maipo,Chile-Argentina,South America,Central Chile and Argentina,-34.161,-69.8329999999999,1.0
357022,Palomo,Chile,South America,Central Chile and Argentina,-34.6079999999999,-70.295,
357023,"Atuel, Caldera(s) del",Argentina,South America,Central Chile and Argentina,-34.6499999999999,-70.0499999999999,
357024,Risco Plateado,Argentina,South America,Central Chile and Argentina,-34.93,-70.0,
357030,Tinguiririca,Chile,South America,Central Chile and Argentina,-34.814,-70.352,
357040,Planch?n-Peteroa,Chile,South America,Central Chile and Argentina,-35.24,-70.56999999999991,2.0
357041,Infiernillo,Argentina,South America,Central Chile and Argentina,-35.142,-69.8299999999999,
357042,Calabozos,Chile,South America,Central Chile and Argentina,-35.558,-70.49599999999991,
357050,Descabezado Grande,Chile,South America,Central Chile and Argentina,-35.5799999999999,-70.75,
357060,"Azul, Cerro",Chile,South America,Central Chile and Argentina,-35.6529999999999,-70.76099999999991,3.0
357061,"Maule, Laguna del",Chile,South America,Central Chile and Argentina,-36.02,-70.5799999999999,
357062,San Pedro-Pellado,Chile,South America,Central Chile and Argentina,-35.9889999999999,-70.849,
357063,"Longav?, Nevado de",Chile,South America,Central Chile and Argentina,-36.192999999999905,-71.161,
357064,"Blancas, Lomas",Chile,South America,Central Chile and Argentina,-36.286,-71.009,
357065,Resago,Chile,South America,Central Chile and Argentina,-36.45,-70.92,
357066,Pay?n Matru,Argentina,South America,Central Chile and Argentina,-36.42,-69.2,
357067,Domuyo,Argentina,South America,Central Chile and Argentina,-36.579999999999906,-70.42,
357070,"Chill?n, Nevados de",Chile,South America,Central Chile and Argentina,-36.863,-71.37699999999991,2.0
357071,Cochiquito Volcanic Group,Argentina,South America,Central Chile and Argentina,-36.77,-69.8199999999999,
357072,Tromen,Argentina,South America,Central Chile and Argentina,-37.142,-70.03,
357073,Puesto Cortaderas,Argentina,South America,Central Chile and Argentina,-37.57,-69.62,
357080,Antuco,Chile,South America,Central Chile and Argentina,-37.405999999999906,-71.349,2.0
357081,Trocon,Argentina,South America,Central Chile and Argentina,-37.729999999999905,-70.9,
357090,Copahue,Chile-Argentina,South America,Central Chile and Argentina,-37.85,-71.17,2.0
357091,Callaqui,Chile,South America,Central Chile and Argentina,-37.92,-71.45,
357092,"Mari?aqui, Laguna",Chile,South America,Central Chile and Argentina,-38.27,-71.09999999999991,
357093,Tolguaca,Chile,South America,Central Chile and Argentina,-38.31,-71.64499999999991,
357100,Lonquimay,Chile,South America,Central Chile and Argentina,-38.377,-71.5799999999999,2.0
357101,Tralihue,Argentina,South America,Central Chile and Argentina,-38.52,-70.9,
357102,"Blanca, Laguna",Argentina,South America,Central Chile and Argentina,-39.02,-70.37,
357110,Llaima,Chile,South America,Central Chile and Argentina,-38.692,-71.7289999999999,2.0
357111,Sollipulli,Chile,South America,Central Chile and Argentina,-38.96999999999991,-71.51999999999991,
357112,Caburgua-Huelemolle,Chile,South America,Central Chile and Argentina,-39.25,-71.7,
357120,Villarrica,Chile,South America,Central Chile and Argentina,-39.42,-71.93,2.0
357121,Quetrupillan,Chile,South America,Central Chile and Argentina,-39.5,-71.7,
357122,Lan?n,Chile-Argentina,South America,Central Chile and Argentina,-39.633,-71.5,
357123,Huanquihue Group,Argentina,South America,Central Chile and Argentina,-39.88,-71.5799999999999,
357130,Mocho-Choshuenco,Chile,South America,Central Chile and Argentina,-39.927,-72.027,
357140,Carr?n-Los Venados,Chile,South America,Central Chile and Argentina,-40.35,-72.06999999999991,
357150,Puyehue-Cord?n Caulle,Chile,South America,Central Chile and Argentina,-40.59,-72.117,3.0
357152,"Pantoja, Cerro",Chile-Argentina,South America,Central Chile and Argentina,-40.77,-71.95,
357153,Antillanca Group,Chile,South America,Central Chile and Argentina,-40.771,-72.153,
357160,Puntiagudo-Cord?n Cenizos,Chile,South America,Central Chile and Argentina,-40.969,-72.26399999999991,
358010,Osorno,Chile,South America,Southern Chile and Argentina,-41.1,-72.49299999999991,3.0
358011,Tronador,Chile-Argentina,South America,Southern Chile and Argentina,-41.156999999999904,-71.885,
358012,Cayutu?-La Viguer?a,Chile,South America,Southern Chile and Argentina,-41.25,-72.26999999999991,
358020,Calbuco,Chile,South America,Southern Chile and Argentina,-41.326,-72.614,3.0
358021,Cuernos del Diablo,Chile,South America,Southern Chile and Argentina,-41.399999999999906,-72.0,
358022,Yate,Chile,South America,Southern Chile and Argentina,-41.755,-72.396,
358023,Hornopir?n,Chile,South America,Southern Chile and Argentina,-41.874,-72.4309999999999,
358024,Apagado,Chile,South America,Southern Chile and Argentina,-41.88,-72.5799999999999,
358025,Crater Basalt Volcanic Field,Argentina,South America,Southern Chile and Argentina,-42.02,-70.18,
358030,Huequi,Chile,South America,Southern Chile and Argentina,-42.377,-72.578,1.0
358040,Minchinm?vida,Chile,South America,Southern Chile and Argentina,-42.79299999999991,-72.43899999999991,
358041,Chait?n,Chile,South America,Southern Chile and Argentina,-42.832999999999906,-72.646,
358049,Yanteles,Chile,South America,Southern Chile and Argentina,-43.5,-72.7999999999999,
358050,Corcovado,Chile,South America,Southern Chile and Argentina,-43.18,-72.7999999999999,
358051,Palena Volcanic Group,Chile,South America,Southern Chile and Argentina,-43.78,-72.4699999999999,
358052,Melimoyu,Chile,South America,Southern Chile and Argentina,-44.079999999999906,-72.87999999999991,
358053,Puyuhuapi,Chile,South America,Southern Chile and Argentina,-44.299999999999905,-72.53,
358054,Mentolat,Chile,South America,Southern Chile and Argentina,-44.7,-73.0799999999999,
358055,Cay,Chile,South America,Southern Chile and Argentina,-45.0589999999999,-72.98399999999991,
358056,Maca,Chile,South America,Southern Chile and Argentina,-45.1,-73.17,
358057,"Hudson, Cerro",Chile,South America,Southern Chile and Argentina,-45.89999999999989,-72.9699999999999,
358058,R?o Murta,Chile,South America,Southern Chile and Argentina,-46.17,-72.67,
358059,Arenales,Chile,South America,Southern Chile and Argentina,-47.2,-73.48,
358060,Lautaro,Chile,South America,Southern Chile and Argentina,-49.02,-73.5499999999999,1.0
358061,Viedma,Argentina,South America,Southern Chile and Argentina,-49.3579999999999,-73.28,
358062,Aguilera,Chile,South America,Southern Chile and Argentina,-50.32999999999989,-73.75,
358063,Reclus,Chile,South America,Southern Chile and Argentina,-50.96399999999989,-73.58499999999991,
358070,"Burney, Monte",Chile,South America,Southern Chile and Argentina,-52.32999999999989,-73.4,
358080,Palei-Aike Volcanic Field,Chile-Argentina,South America,Southern Chile and Argentina,-52.0,-70.0,
358090,Fueguino,Chile,South America,Southern Chile and Argentina,-54.95,-70.25,
360010,Saba,Netherlands,West Indies,West Indies,17.629999999999896,-63.2299999999999,
360020,"Quill, The",Netherlands,West Indies,West Indies,17.478,-62.96,
360030,Liamuiga,Saint Kitts and Nevis,West Indies,West Indies,17.37,-62.7999999999999,
360040,Nevis Peak,Saint Kitts and Nevis,West Indies,West Indies,17.1499999999999,-62.57999999999989,
360050,Soufri?re Hills,United Kingdom,West Indies,West Indies,16.7199999999999,-62.18,3.0
360060,Soufri?re Guadeloupe,France,West Indies,West Indies,16.05,-61.67,3.0
360080,"Diables, Morne aux",Dominica,West Indies,West Indies,15.612,-61.43,
360090,"Diablotins, Morne",Dominica,West Indies,West Indies,15.503,-61.39699999999989,
360100,"Trois Pitons, Morne",Dominica,West Indies,West Indies,15.3699999999999,-61.32999999999989,
360101,"Watt, Morne",Dominica,West Indies,West Indies,15.307,-61.305,
360110,"Plat Pays, Morne",Dominica,West Indies,West Indies,15.255,-61.341,
360120,Pel?e,France,West Indies,West Indies,14.82,-61.17,3.0
360140,Qualibou,Saint Lucia,West Indies,West Indies,13.83,-61.0499999999999,
360150,Soufri?re St. Vincent,Saint Vincent and the Grenadines,West Indies,West Indies,13.33,-61.18,3.0
360160,Kick 'em Jenny,Grenada,West Indies,West Indies,12.3,-61.64,1.0
360170,St. Catherine,Grenada,West Indies,West Indies,12.15,-61.67,
370010,Snaefellsj?kull,Iceland,Iceland and Arctic Ocean,Iceland (western),64.7999999999999,-23.78,1.0
370020,Helgrindur,Iceland,Iceland and Arctic Ocean,Iceland (western),64.87,-23.25,
370030,Lj?sufj?ll,Iceland,Iceland and Arctic Ocean,Iceland (western),64.87,-22.23,1.0
371020,Reykjanes,Iceland,Iceland and Arctic Ocean,Iceland (southwestern),63.88,-22.5,2.0
371030,Kr?suv?k,Iceland,Iceland and Arctic Ocean,Iceland (southwestern),63.93,-22.1,1.0
371040,Brennisteinsfj?ll,Iceland,Iceland and Arctic Ocean,Iceland (southwestern),63.92,-21.8299999999999,1.0
371050,Hengill,Iceland,Iceland and Arctic Ocean,Iceland (southwestern),64.0799999999999,-21.32,1.0
371051,Hr?mundartindur,Iceland,Iceland and Arctic Ocean,Iceland (southwestern),64.0729999999999,-21.202,
371060,Gr?msnes,Iceland,Iceland and Arctic Ocean,Iceland (southwestern),64.03,-20.87,1.0
371070,Prestahnukur,Iceland,Iceland and Arctic Ocean,Iceland (southwestern),64.5999999999999,-20.5799999999999,
371080,Hveravellir,Iceland,Iceland and Arctic Ocean,Iceland (southwestern),64.75,-19.98,1.0
371090,Hofsj?kull,Iceland,Iceland and Arctic Ocean,Iceland (southwestern),64.78,-18.92,
372010,Vestmannaeyjar,Iceland,Iceland and Arctic Ocean,Iceland (southern),63.43,-20.28,
372020,Eyjafjallaj?kull,Iceland,Iceland and Arctic Ocean,Iceland (southern),63.63,-19.62,
372030,Katla,Iceland,Iceland and Arctic Ocean,Iceland (southern),63.63,-19.05,2.0
372040,Tindfjallaj?kull,Iceland,Iceland and Arctic Ocean,Iceland (southern),63.78,-19.57,
372050,Torfaj?kull,Iceland,Iceland and Arctic Ocean,Iceland (southern),63.92,-19.17,
372070,Hekla,Iceland,Iceland and Arctic Ocean,Iceland (southern),63.9799999999999,-19.699999999999896,3.0
373010,Gr?msv?tn,Iceland,Iceland and Arctic Ocean,Iceland (northeastern),64.42,-17.3299999999999,2.0
373030,B?rdarbunga,Iceland,Iceland and Arctic Ocean,Iceland (northeastern),64.6299999999999,-17.53,2.0
373040,Tungnafellsj?kull,Iceland,Iceland and Arctic Ocean,Iceland (northeastern),64.73,-17.92,
373050,Kverkfj?ll,Iceland,Iceland and Arctic Ocean,Iceland (northeastern),64.65,-16.7199999999999,1.0
373060,Askja,Iceland,Iceland and Arctic Ocean,Iceland (northeastern),65.03,-16.75,2.0
373070,Fremrinamur,Iceland,Iceland and Arctic Ocean,Iceland (northeastern),65.43,-16.6499999999999,
373080,Krafla,Iceland,Iceland and Arctic Ocean,Iceland (northeastern),65.73,-16.78,1.0
373090,Theistareykjarbunga,Iceland,Iceland and Arctic Ocean,Iceland (northeastern),65.8799999999999,-16.8299999999999,
373100,Tj?rnes Fracture Zone,Iceland,Iceland and Arctic Ocean,Iceland (northeastern),66.2999999999999,-17.1,
374010,?raefaj?kull,Iceland,Iceland and Arctic Ocean,Iceland (southeastern),64.0,-16.6499999999999,
374020,Esjufj?ll,Iceland,Iceland and Arctic Ocean,Iceland (southeastern),64.2699999999999,-16.6499999999999,
375010,Kolbeinsey Ridge,Iceland,Iceland and Arctic Ocean,North of Iceland,66.67,-18.5,
376010,Jan Mayen,Norway,Iceland and Arctic Ocean,Atlantic Ocean (Jan Mayen),71.0799999999999,-8.17,2.0
377010,Unnamed,Undersea Features,Iceland and Arctic Ocean,Arctic Ocean,88.26999999999991,-65.5999999999999,
377020,Unnamed,Undersea Features,Iceland and Arctic Ocean,Arctic Ocean,85.5799999999999,85.0,
381020,Unnamed,Undersea Features,Atlantic Ocean,Atlantic Ocean (northern),49.0,-34.5,
381030,Unnamed,Undersea Features,Atlantic Ocean,Atlantic Ocean (northern),39.95,-25.8299999999999,
381040,Unnamed,Undersea Features,Atlantic Ocean,Atlantic Ocean (northern),38.75,-38.079999999999906,
382001,Flores,Portugal,Atlantic Ocean,Azores,39.462,-31.216,
382002,Corvo,Portugal,Atlantic Ocean,Azores,39.698999999999906,-31.111,
382010,Fayal,Portugal,Atlantic Ocean,Azores,38.6,-28.73,
382020,Pico,Portugal,Atlantic Ocean,Azores,38.46999999999991,-28.3999999999999,
382030,San Jorge,Portugal,Atlantic Ocean,Azores,38.649999999999906,-28.0799999999999,2.0
382040,Graciosa,Portugal,Atlantic Ocean,Azores,39.02,-27.9699999999999,
382050,Terceira,Portugal,Atlantic Ocean,Azores,38.729999999999905,-27.32,
382070,Don Joao de Castro Bank,Portugal,Atlantic Ocean,Azores,38.229999999999905,-26.6299999999999,
382080,Sete Cidades,Portugal,Atlantic Ocean,Azores,37.869999999999905,-25.78,2.0
382081,Picos Volcanic System,Portugal,Atlantic Ocean,Azores,37.78,-25.67,
382090,Agua de Pau,Portugal,Atlantic Ocean,Azores,37.77,-25.4699999999999,3.0
382100,Furnas,Portugal,Atlantic Ocean,Azores,37.77,-25.32,3.0
382110,Monaco Bank,Portugal,Atlantic Ocean,Azores,37.6,-25.8799999999999,
382120,Madeira,Portugal,Atlantic Ocean,Azores,32.7299999999999,-16.9699999999999,
383010,La Palma,Spain,Atlantic Ocean,Canary Islands,28.57,-17.8299999999999,2.0
383020,Hierro,Spain,Atlantic Ocean,Canary Islands,27.73,-18.03,
383030,Tenerife,Spain,Atlantic Ocean,Canary Islands,28.271,-16.6409999999999,2.0
383040,Gran Canaria,Spain,Atlantic Ocean,Canary Islands,28.0,-15.58,
383050,Fuerteventura,Spain,Atlantic Ocean,Canary Islands,28.358,-14.02,
383060,Lanzarote,Spain,Atlantic Ocean,Canary Islands,29.03,-13.63,
384010,Fogo,Cape Verde,Atlantic Ocean,Cape Verde Islands,14.9499999999999,-24.35,1.0
384020,Brava,Cape Verde,Atlantic Ocean,Cape Verde Islands,14.85,-24.7199999999999,
384030,Sao Vicente,Cape Verde,Atlantic Ocean,Cape Verde Islands,16.85,-24.9699999999999,
385010,Unnamed,Undersea Features,Atlantic Ocean,Atlantic Ocean (central),7.0,-21.8299999999999,
385020,Unnamed,Undersea Features,Atlantic Ocean,Atlantic Ocean (central),4.2,-21.449999999999896,
385030,Unnamed,Undersea Features,Atlantic Ocean,Atlantic Ocean (central),-0.72,-20.53,
385040,Unnamed,Undersea Features,Atlantic Ocean,Atlantic Ocean (central),-3.5,-24.5,
385050,Ascensi?n,United Kingdom,Atlantic Ocean,Atlantic Ocean (central),-7.95,-14.3699999999999,
385051,Trindade,Brazil,Atlantic Ocean,Atlantic Ocean (central),-20.513999999999896,-29.331,
385052,Unnamed,Undersea Features,Atlantic Ocean,Atlantic Ocean (central),-32.9579999999999,-5.22,
386010,Tristan da Cunha,United Kingdom,Atlantic Ocean,Atlantic Ocean (southern),-37.091999999999906,-12.2799999999999,
386011,Nightingale Island,United Kingdom,Atlantic Ocean,Atlantic Ocean (southern),-37.42,-12.48,
386020,Bouvet,Norway,Atlantic Ocean,Atlantic Ocean (southern),-54.42,3.35,
386030,Thompson Island,Norway,Atlantic Ocean,Atlantic Ocean (southern),-53.93,5.5,
390010,Buckle Island,Antarctica,Antarctica,Antarctica and South Sandwich Islands,-66.78,163.25,
390011,Young Island,Antarctica,Antarctica,Antarctica and South Sandwich Islands,-66.42,162.47,
390012,Sturge Island,Antarctica,Antarctica,Antarctica and South Sandwich Islands,-67.4,164.83,
390013,"Pleiades, The",Antarctica,Antarctica,Antarctica and South Sandwich Islands,-72.67,165.5,
390014,Unnamed,Antarctica,Antarctica,Antarctica and South Sandwich Islands,-73.45,164.58,
390015,Melbourne,Antarctica,Antarctica,Antarctica and South Sandwich Islands,-74.34999999999991,164.69999999999902,
390016,Unnamed,Antarctica,Antarctica,Antarctica and South Sandwich Islands,-76.8299999999999,163.0,
390017,"Morning, Mt.",Antarctica,Antarctica,Antarctica and South Sandwich Islands,-78.5,163.53,
390020,Erebus,Antarctica,Antarctica,Antarctica and South Sandwich Islands,-77.53,167.16999999999902,1.0
390021,Royal Society Range,Antarctica,Antarctica,Antarctica and South Sandwich Islands,-78.25,163.33,
390022,Berlin,Antarctica,Antarctica,Antarctica and South Sandwich Islands,-76.0499999999999,-136.0,
390023,Andrus,Antarctica,Antarctica,Antarctica and South Sandwich Islands,-75.7999999999999,-132.33,
390024,Waesche,Antarctica,Antarctica,Antarctica and South Sandwich Islands,-77.17,-126.88,
390025,Siple,Antarctica,Antarctica,Antarctica and South Sandwich Islands,-73.43,-126.67,
390026,Toney Mountain,Antarctica,Antarctica,Antarctica and South Sandwich Islands,-75.7999999999999,-115.83,
390027,Takahe,Antarctica,Antarctica,Antarctica and South Sandwich Islands,-76.28,-112.08,
390028,Hudson Mountains,Antarctica,Antarctica,Antarctica and South Sandwich Islands,-74.3299999999999,-99.42,
390029,Peter I Island,Antarctica,Antarctica,Antarctica and South Sandwich Islands,-68.8499999999999,-90.5799999999999,
390030,Deception Island,Antarctica,Antarctica,Antarctica and South Sandwich Islands,-62.96999999999989,-60.64999999999989,2.0
390031,Penguin Island,Antarctica,Antarctica,Antarctica and South Sandwich Islands,-62.1,-57.93,
390040,Bridgeman Island,Antarctica,Antarctica,Antarctica and South Sandwich Islands,-62.0499999999999,-56.75,
390041,Paulet,Antarctica,Antarctica,Antarctica and South Sandwich Islands,-63.57999999999989,-55.77,
390050,Seal Nunataks Group,Antarctica,Antarctica,Antarctica and South Sandwich Islands,-65.03,-60.0499999999999,
390070,Thule Islands,United Kingdom,Antarctica,Antarctica and South Sandwich Islands,-59.45,-27.37,
390080,Bristol Island,United Kingdom,Antarctica,Antarctica and South Sandwich Islands,-59.03,-26.5799999999999,1.0
390081,Montagu Island,United Kingdom,Antarctica,Antarctica and South Sandwich Islands,-58.42,-26.3299999999999,
390090,Michael,United Kingdom,Antarctica,Antarctica and South Sandwich Islands,-57.78,-26.4499999999999,1.0
390100,Candlemas Island,United Kingdom,Antarctica,Antarctica and South Sandwich Islands,-57.07999999999989,-26.67,
390110,Hodson,United Kingdom,Antarctica,Antarctica and South Sandwich Islands,-56.7,-27.1499999999999,
390120,Leskov Island,United Kingdom,Antarctica,Antarctica and South Sandwich Islands,-56.67,-28.1299999999999,
390130,Zavodovski,United Kingdom,Antarctica,Antarctica and South Sandwich Islands,-56.2999999999999,-27.57,
390140,Protector Shoal,United Kingdom,Antarctica,Antarctica and South Sandwich Islands,-55.92,-28.0799999999999,
